STATION_ID,LAT,LON,ELEVATION,STATION_LOCATION,ZIP
ASN00061004,-32.25,150.8667,205.7,MUSWELLBROOK (BENGALLA),
ASN00061018,-32.4,150.8333,168,MUSWELLBROOK (EDDERTON),
ASN00061053,-32.2611,150.8847,143,MUSWELLBROOK (LOWER HILL ST),
ASN00061168,-32.3147,150.7552,160,MUSWELLBROOK (LINDISFARNE),
ASN00061192,-32.2092,150.7365,259,MUSWELLBROOK (SPRING CREEK (CA,
ASN00061305,-32.2106,150.7606,244,MUSWELLBROOK (MIRRABOOKA),
ASN00061374,-32.2199,150.9193,190,MUSWELLBROOK (ST.HELIERS),
CA001167260,50.3,-118.8167,427,BC SHUSWAP FALLS,
USW00003013,38.07,-102.6881,1129,CO LAMAR MUNI AP,
USW00003016,39.5264,-107.7264,1685.5,CO RIFLE GARFIELD CO AP,
USW00003017,39.8328,-104.6575,1650.2,CO DENVER INTL AP,72565
USW00003024,35.695,-101.395,930.9,TX BORGER HUTCHINSON CO AP,
USW00003026,39.2447,-102.2842,1277.7,CO BURLINGTON CARSON AP,
USW00003027,35.0028,-105.6628,2159.8,NM CLINES CORNERS,
USW00003028,37.2833,-102.6139,1335.9,CO SPRINGFIELD COMANCHE,
USW00003029,35.6575,-109.0614,2054,AZ WINDOW ROCK AP,
USW00003030,36.6817,-101.5053,951.9,OK GUYMON MUNI AP,
USW00003031,31.9206,-102.3867,914.7,TX ODESSA SCHLEMEYER FLD,
USW00003032,30.0481,-102.2131,707.7,TX DRYDEN TERRELL CO AP,
USW00003047,31.6219,-102.8072,830.3,TX MONAHANS 6 ENE                     CRN,74729
USW00003048,34.3558,-106.8858,1477.4,NM SOCORRO 20 N                       CRN,74634
USW00003054,33.9558,-102.7739,1140.6,TX MULESHOE 19 S                      CRN,74727
USW00003055,36.5992,-101.595,995.5,OK GOODWELL 2 E                       CRN,72358
USW00003060,38.5439,-107.6928,2560.9,CO MONTROSE 11 ENE                    CRN,74522
USW00003061,37.2553,-108.5036,2448.8,CO CORTEZ 8 SE                        CRN,74523
USW00003062,35.8583,-106.5214,2656.6,NM LOS ALAMOS 13 W                    CRN,74633
USW00003063,37.8639,-103.8225,1336.9,CO LA JUNTA 17 WSW                    CRN,74529
USW00003067,38.87,-100.9628,874.8,KS OAKLEY 19 SSW                      CRN,72457
USW00003068,38.7667,-104.3,1837.9,CO BULLSEYE AUX AIRFIELD,
USW00003072,32.0408,-100.2494,608.7,TX BRONTE 11 NNE                      CRN,74737
USW00003074,32.6136,-106.7414,1318.9,NM LAS CRUCES 20 N                    CRN,74632
USW00003076,39.1017,-108.7353,1769.7,CO GRAND JUNCTION 9 W                 CRN,
USW00003077,34.8222,-109.8928,1710.8,AZ HOLBROOK 17 ESE                    CRN,
USW00003078,38.5442,-102.5025,1209.1,CO EADS 16 ENE                        CRN,
USW00003079,38.0989,-106.1708,2384.5,CO SAGUACHE 2 WNW                     CRN,
USW00003080,33.715,-108.7772,1780.6,NM RESERVE 1 W                        CRN,
USW00003081,37.5175,-111.9775,1796.8,UT TROPIC 9 SE                        CRN,
USW00003082,33.6475,-105.8944,1635.6,NM CARRIZOZO 1 W                      CRN,
USW00003083,39.6553,-102.6217,1283.8,CO STRATTON 24 N                      CRN,
USW00003084,37.7067,-106.1444,2340.3,CO CENTER A 4 SSW                     CRN,
USW00003085,32.0094,-109.3892,1564.5,AZ BOWIE 23 SSE                       CRN,
USW00003086,37.3814,-102.7194,1389,CO SPRINGFIELD 6 WSW                  CRN,
USW00003087,35.8244,-106.3178,2212.2,NM SANTA FE 20 WNW                    CRN,
USW00003088,38.9106,-105.265,2601.5,CO WOODLAND PARK 14 WSW               CRN,
USW00003089,38.0386,-103.6947,1271,CO ROCKY FORD 1 ESE                   CRN,
USW00003090,36.6519,-105.9722,2484.4,NM TAOS 27 NW                         CRN,
USW00003091,37.2167,-103.5042,1789.2,CO KIM 9 WSW                          CRN,
USW00003092,36.7778,-103.9817,2204.3,NM RATON 26 ESE                       CRN,
USW00003093,39.7858,-103.5169,1452.1,CO GENOA 35 N                         CRN,
USW00003094,36.47,-103.1239,1488.9,NM CLAYTON 3 ENE                      CRN,
USW00003095,36.0608,-104.3553,1788,NM MILLS 6 WSW                        CRN,
USW00003096,39.7608,-108.1267,2301.2,CO RIFLE 23 NW                        CRN,
USW00003097,34.5169,-106.2703,1977.8,NM MOUNTAINAIR 2 WSW                  CRN,
USW00003098,39.4828,-106.7336,2622.8,CO EAGLE 13 SSE                       CRN,
USW00003099,40.9481,-107.6083,1986.7,CO CRAIG 30 N                         CRN,
USW00003102,34.0561,-117.6003,289.3,CA ONTARIO INTL AP,
USW00003103,35.1442,-111.6664,2134.5,AZ FLAGSTAFF PULLIAM AP,72375
USW00003104,33.6267,-116.1594,-36,CA DESERT RESORTS RGNL AP,
USW00003109,36.95,-116.0833,1196,NV CAMP MERCURY,
USW00003122,33.8017,-118.3411,27.4,CA TORRANCE AP,
USW00003124,31.5883,-110.3442,1438.4,AZ FORT HUACHUCA,72273
USW00003125,32.8356,-114.3942,98.8,AZ YUMA PROVING GROUND,
USW00003129,35.05,-118.1667,842.5,CA MOJAVE MCAS,
USW00003131,32.8158,-117.1394,127.1,CA SAN DIEGO MONTGOMERY FLD,
USW00003144,32.8342,-115.5786,-17.7,CA IMPERIAL CO AP,
USW00003145,32.65,-114.6167,64.9,AZ YUMA MCAS,
USW00003154,33.3,-117.35,22.9,CA CAMP PENDLETON MCAS,
USW00003159,34.7411,-118.2117,712.6,CA LANCASTER WM J FOX FLD,
USW00003160,36.6206,-116.0278,984.5,NV MERCURY DESERT ROCK AP,72387
USW00003162,36.9261,-111.4478,1313.7,AZ PAGE MUNI AP,72371
USW00003163,37.6122,-114.5264,1333.8,NV CALIENTE,72487
USW00003164,32.6261,-116.4681,805,CA CAMPO ASOS,
USW00003166,33.8719,-117.9789,29.3,CA FULLERTON MUNI AP,
USW00003167,33.9228,-118.3342,19.2,CA HAWTHORNE MUNI AP,
USW00003170,39.6014,-116.0056,1809.3,NV EUREKA AIRPORT,72477
USW00003171,33.9519,-117.4386,245.4,CA RIVERSIDE MUNI AP,
USW00003177,33.1281,-117.2794,100,CA CARLSBAD PALOMAR AP,
USW00003178,32.5722,-116.9794,157,CA SAN DIEGO BROWN FLD,
USW00003179,33.9753,-117.6361,198.1,CA CHINO AP,
USW00003184,33.6883,-112.0817,443.5,AZ PHOENIX DEER VALLEY MUNI AP,
USW00003192,33.6228,-111.9106,449,AZ SCOTTSDALE MUNI AP,
USW00003195,35.9461,-112.1547,2013.5,AZ GRAND CANYON NP AP,
USW00003196,31.4208,-110.8458,1198.5,AZ NOGALES INTL AP,
USW00003728,33.1533,-79.3636,2.7,SC MCCLELLANVILLE 7 NE                CRN,74785
USW00003733,39.0131,-79.4742,1033.3,WV ELKINS 21 ENE                      CRN,72437
USW00003739,37.2908,-75.9269,8.8,VA CAPE CHARLES 5 ENE                 CRN,74590
USW00003749,39.645,-77.4681,563,MD CAMP DAVID,
USW00003757,38.1417,-76.4292,6.4,MD ST INIGOES WEBSTER NOLF,
USW00003758,35.9706,-79.0931,171.3,NC DURHAM 11 W                        CRN,74694
USW00003759,37.9975,-78.4656,358.7,VA CHARLOTTESVILLE 2 SSE              CRN,74601
USW00003761,39.8592,-75.7861,121.9,PA AVONDALE 2 N                       CRN,72516
USW00003802,39.2956,-80.2289,366.7,WV CLARKSBURG BENEDUM AP,
USW00003804,39.345,-81.4392,253.3,WV PARKERSBURG WOOD CO AP,72427
USW00003809,36.0003,-89.41,91.4,TN DYERSBURG III GOLF,
USW00003810,35.7425,-81.3819,348.4,NC HICKORY FAA AP,72301
USW00003811,35.5931,-88.9167,132,TN JACKSON MCKELLAR AP,
USW00003812,35.4319,-82.5375,645.3,NC ASHEVILLE RGNL AP,72315
USW00003813,32.6847,-83.6528,104.5,GA MACON MIDDLE GA RGNL AP,72217
USW00003814,36.9667,-84.1333,359.1,KY CORBIN CAA AP,
USW00003815,30.4833,-87.35,28,FL PENSACOLA NAS,
USW00003816,37.0683,-88.7719,119.5,KY PADUCAH,72435
USW00003817,36.6,-89.9833,92,MO MALDEN FAA AP,
USW00003818,30.8356,-85.1839,34.4,FL MARIANNA MUNI AP,74776
USW00003820,33.3644,-81.9633,40.2,GA AUGUSTA BUSH FLD AP,72218
USW00003822,32.13,-81.21,14,GA SAVANNAH INTL AP                   HCN,72207
USW00003838,38.9833,-89.1667,163.1,IL VANDALIA FAA AP,
USW00003839,36.1167,-86.6833,185,TN NASHVILLE BERRY FLD AF,
USW00003841,36.0028,-84.2486,275.8,TN OAK RIDGE ATDD,
USW00003843,30.5833,-86.45,47.9,FL PIERCE FLD AAFB,
USW00003844,30.65,-86.5333,57.9,FL DUKE FLD AAFB,
USW00003847,35.9508,-85.0814,569.1,TN CROSSVILLE MEM AP,72325
USW00003849,37.0872,-84.0769,362.1,KY LONDON CORBIN AP,72329
USW00003850,31.2667,-85.7167,91.1,AL CAIRNS FLD FT RUCKER,
USW00003852,30.4167,-86.6833,11.9,FL VALPARAISO HURLBURT FLD,74777
USW00003853,30.4,-81.4167,4.9,FL MAYPORT PILOT STN,
USW00003855,30.35,-87.3167,8.5,FL PENSACOLA FOREST SHERMAN NAS,
USW00003856,34.6439,-86.7861,190.2,AL HUNTSVILLE INTL AP,72323
USW00003858,33.9667,-80.8,89.9,SC EASTOVER MCENTIRE ANG,
USW00003859,37.2958,-81.2078,874.8,WV BLUEFIELD MERCER CO AP,
USW00003860,38.365,-82.555,251.2,WV HUNTINGTON TRI STATE AP,72425
USW00003866,32.55,-88.5667,82.6,MS MERIDIAN NAAS,
USW00003867,39.85,-83.8333,323.1,OH SPRINGFIELD AF,
USW00003868,39.4519,-87.3089,175.3,IN TERRE HAUTE HULMAN RGNL AP,
USW00003870,34.8831,-82.2203,286.5,SC GREER                          GSN HCN,72312
USW00003871,39.1,-84.5167,193.9,OH CINCINNATI WSO CITY,
USW00003872,37.7836,-81.1231,766.3,WV BECKLEY RALEIGH CO AP,72412
USW00003874,32.3667,-84.8,134.1,GA FT BENNING MCKENNA,
USW00003875,31.8833,-81.5667,14,GA FT STEWART WRIGHT,72209
USW00003876,30.4333,-86.9333,11.9,FL VALPARAISO,
USW00003878,31.8606,-86.0122,121,AL TROY MUNI AP,
USW00003881,32.8661,-87.2383,137.2,AL CENTREVILLE 6 SW,72229
USW00003882,30.2119,-85.6828,6.4,FL PANAMA CITY BAY CO AP,
USW00003883,33.4667,-86.8333,226.8,AL BIRMINGHAM WSFO,
USW00003887,39.8344,-88.8656,205.7,IL DECATUR AP,
USW00003888,33.7792,-84.5214,256,GA ATLANTA FULTON CO AP,
USW00003889,37.5908,-83.3131,415.7,KY JACKSON,72419
USW00003893,39.1333,-86.6167,257.3,IN BLOOMINGTON MONROE CO AP,
USW00003894,36.6239,-87.4194,170.7,TN CLARKSVILLE OUTLAW AP,72328
USW00003901,32.3847,-94.7117,111.3,TX LONGVIEW E TX RGNL AP,72247
USW00003902,31.0667,-97.8333,309.4,TX ROBERT GRAY AAF,
USW00003904,30.5892,-96.3647,93,TX COLLEGE STN,74746
USW00003918,36.3,-92.6,214.9,AR FLIPPIN FAA AP,
USW00003919,38.8,-97.65,386.8,KS SALINA MUNI AP,
USW00003923,37.6167,-97.2667,413.9,KS WICHITA MCCONNELL AFB,
USW00003927,32.8978,-97.0189,170.7,TX DALLAS FT WORTH AP,72259
USW00003928,37.6544,-97.4425,406.9,KS WICHITA,72450
USW00003929,38.8439,-94.5603,321.9,MO KANSAS CITY R GEBAUR AP,
USW00003930,34.9167,-92.15,103,AR LITTLE ROCK AFB,
USW00003931,31.05,-93.1833,100.6,LA FT POLK AAF,72239
USW00003932,35.21,-99.12,585.8,OK CLINTON SHERMAN AP,
USW00003933,31.1333,-97.7167,281.6,TX FT HOOD,72257
USW00003934,30.0333,-91.8833,7.9,LA NEW IBERIA NAAS,
USW00003935,37.2253,-89.5706,102.4,MO CAPE GIRARDEAU MUNI AP,72329
USW00003936,39.1353,-96.6778,322.2,KS MANHATTAN MUNI AP,
USW00003937,30.125,-93.2158,4,LA LAKE CHARLES,72240
USW00003938,37.75,-92.15,351.1,MO WAYNESVILLE REGNL AP,
USW00003940,32.3206,-90.0778,100.6,MS JACKSON INTL AP,72235
USW00003943,32.85,-98.05,253.9,TX MINERAL WELLS WOLTERS AF,
USW00003944,32.7833,-98.2667,359.1,TX PALO PINTO DEMPSEY AF,
USW00003945,38.8169,-92.2183,272.2,MO COLUMBIA RGNL AP               GSN,72445
USW00003947,39.2972,-94.7306,306.3,MO KANSAS CITY INTL AP,72446
USW00003949,31.4,-93.2833,111.3,LA PEASON RIDGE RANGE,72282
USW00003950,34.5583,-98.4172,325.8,OK LAWTON MUNI AP,
USW00003951,32.35,-94.65,124.1,TX LONGVIEW WSMO,72247
USW00003952,34.8364,-92.2619,173.1,AR LITTLE ROCK,72340
USW00003953,35.8311,-90.6464,79.9,AR JONESBORO MUNI AP,
USW00003954,35.5342,-97.6469,395.3,OK OKLAHOMA CITY POST AP,
USW00003957,37.2839,-98.5528,467.9,KS MEDICINE LODGE,72452
USW00003959,36.7683,-96.0261,217.9,OK BARTLESVILLE F P FLD               HCN,
USW00003960,38.5714,-90.1572,125.9,IL CAHOKIA ST LOUIS AP,
USW00003962,34.29,-93.06,163.1,AR HOT SPRINGS ASOS,
USW00003963,38.5911,-92.1558,174.7,MO JEFFERSON CITY MEM AP,
USW00003965,36.1625,-97.0894,299.9,OK STILLWATER RGNL AP,
USW00003966,38.6572,-90.6558,140.8,MO ST LOUIS SPRT OF S L AP,
USW00003967,38.85,-94.7392,326.1,KS OLATHE JOHNSON CO EXEC AP,
USW00003969,32.2314,-98.2319,393.2,TX STEPHENVILLE,72260
USW00003971,32.6808,-96.8681,200.6,TX DALLAS REDBIRD AP,
USW00003974,37.7461,-97.2211,433.1,KS WICHITA JABARA AP,
USW00003975,36.7725,-90.3247,99.7,MO POPLAR BLUFF MUNI AP,72330
USW00003981,34.3622,-98.9761,386.2,OK ALTUS AFB,
USW00003991,33.2061,-97.1989,195.7,TX DENTON MUNI AP,
USW00003994,38.7042,-93.1833,274.3,MO SEDALIA MEM AP,
USW00003996,32.35,-91.0278,26.2,LA TALLULAH VICKSBURG AP,
USW00003997,39.0083,-95.2117,253.6,KS LAWRENCE MUNI AP,
USW00003998,37.3278,-95.5042,264.9,KS PARSONS TRI CITY AP,
USW00003999,30.7406,-98.2353,392.6,TX BURNET MUNI AP,
USW00004109,46.1442,-115.5964,451.1,ID LOWELL THREE RIVERS,
USW00004110,42.7267,-114.4564,1233.8,ID JEROME CO AP,
USW00004111,41.2731,-111.0306,2183.3,WY EVANSTON BURNS FLD,
USW00004112,44.1708,-114.9272,1979.7,ID STANLEY RS,
USW00004113,45.8258,-119.2611,195.4,OR HERMISTON MUNI AP,
USW00004114,44.5228,-114.215,1534.1,ID CHALLIS AP,
USW00004125,44.5561,-119.6458,684.3,OR JOHN DAY 35 WNW                    CRN,72697
USW00004126,43.4622,-113.5561,1804.4,ID ARCO 17 SW                         CRN,72579
USW00004127,43.2044,-116.7506,1204,ID MURPHY 10 W                        CRN,72580
USW00004128,43.4711,-119.6917,1396.9,OR RILEY 10 WSW                       CRN,72701
USW00004130,48.7411,-113.4331,1388.4,MT ST. MARY 1 SSW                     CRN,74229
USW00004131,43.6614,-110.7119,1970.8,WY MOOSE 1 NNE                        CRN,72574
USW00004134,40.1606,-113.3508,1310.6,UT GRANITE PEAK DUGWAY PG,
USW00004136,47.4175,-117.5264,691,WA SPOKANE 17 SSW                     CRN,74204
USW00004137,45.1581,-113.0058,1820,MT DILLON 18 WSW                      CRN,74227
USW00004138,41.6164,-112.5436,1509.1,UT BRIGHAM CITY 28 WNW                CRN,72577
USW00004139,41.8483,-119.6358,1981.2,NV DENIO 52 WSW                       CRN,72385
USW00004140,46.8847,-110.2894,1545.3,MT LEWISTOWN 42 WSW                   CRN,74228
USW00004141,43.2717,-124.3186,3.7,OR COOS BAY 8 SW                      CRN,72695
USW00004143,40.2817,-111.2397,2379.9,UT PROVO 22 E                         CRN,
USW00004201,45.7728,-122.8611,16.8,OR SCAPPOOSE IND AP,
USW00004222,40.6508,-122.6067,432.2,CA REDDING 12 WNW                     CRN,74497
USW00004223,48.5406,-121.4461,124.1,WA DARRINGTON 21 NNE                  CRN,74202
USW00004236,44.4186,-123.3258,95.1,OR CORVALLIS 10 SSW                   CRN,72696
USW00004237,47.5139,-123.812,87.2,WA QUINAULT 4 NE                      CRN,74203
USW00004724,43.1072,-78.9453,178.3,NY NIAGARA FALLS INTL AP,
USW00004725,42.1997,-75.985,489.5,NY BINGHAMTON                         HCN,72515
USW00004726,40.3161,-78.8339,696.2,PA JOHNSTOWN CAMBRIA CO AP,
USW00004727,42.75,-76.9,187.1,NY GENEVA SAMPSON AFB,
USW00004739,40.1833,-74.0667,25.9,NJ BELMAR ASC,
USW00004742,44.65,-73.4667,71.9,NY PLATTSBURGH INTL AP,
USW00004743,43.0833,-70.8167,39,NH PORTSMOUTH PEASE AFB,
USW00004751,41.8031,-78.6403,645.3,PA BRADFORD RGNL AP,
USW00004769,42.4167,-71.4833,63.1,MA MAYNARD,
USW00004779,42.5667,-71.6,86.9,MA FT DEVENS AAF,
USW00004780,42.5519,-71.7558,106.1,MA FITCHBURG MUNI AP,
USW00004781,40.7939,-73.1017,25.6,NY ISLIP LI MACARTHUR AP,72505
USW00004782,42.8333,-73.9167,67.1,NY SCHENECTADY,
USW00004783,40.1833,-74.1167,50,NJ BELMAR MONMOUTH AAF,
USW00004787,41.1783,-78.8989,552.9,PA DUBOIS JEFFERSON CO AP,
USW00004789,41.5092,-74.265,111.3,NY MONTGOMERY ORANGE AP,
USW00004803,45.6308,-89.4653,487.4,WI RHINELANDER ONEIDA AP,
USW00004804,40.0781,-83.0781,275.8,OH COLUMBUS OHIO STATE UNIV AP,
USW00004808,41.77,-88.4814,216.4,IL CHICAGO AURORA MUNI AP,
USW00004826,44.3592,-89.8369,310.6,WI WISCONSIN RAPIDS ALEXANDER FLD,
USW00004836,47.2856,-68.3133,301.1,ME FRENCHVILLE AROOSTOOK AP,
USW00004838,42.1208,-87.9047,193.9,IL CHICAGO PALWAUKEE AP,
USW00004839,42.7461,-86.0967,210,MI HOLLAND TULIP CITY AP,
USW00004840,43.77,-88.4864,246.6,WI FOND DU LAC CO AP,
USW00004841,43.7694,-87.8506,227.4,WI SHEBOYGAN CO MEM AP,
USW00004842,40.8731,-81.8867,346.6,OH WOOSTER WAYNE CO AP,
USW00004843,41.6264,-80.215,426.7,PA PORT MEADVILLE AP,
USW00004845,42.595,-87.9381,226.5,WI KENOSHA RGNL AP,
USW00004846,41.4525,-87.0058,234.7,IN VALPARAISO PORTER CO MUNI AP,
USW00004847,41.8678,-84.0794,242.6,MI ADRIAN LENAWEE CO AP,
USW00004848,41.5631,-83.4764,189.6,OH TOLEDO METCALF FLD,
USW00004849,41.3461,-82.1794,242,OH ELYRIA LORAIN CO AP,
USW00004850,40.7083,-84.0267,297.2,OH LIMA ALLEN CO AP,
USW00004851,41.3375,-84.4289,215.8,OH DEFIANCE MEM AP,
USW00004852,40.4719,-81.4236,272.8,OH NEW PHILADELPHIA FLD,
USW00004853,41.5175,-81.6836,178,OH CLEVELAND BURKE AP,
USW00004854,45.0133,-84.7014,406.9,MI GAYLORD OTSEGO CO AP,
USW00004855,40.6161,-83.0636,303,OH MARION MUNI AP,
USW00004856,45.95,-86.2297,178,MI MANISTIQUE,
USW00004857,41.7781,-80.6958,281.6,OH ASHTABULA CO AP,
USW00004858,40.0228,-82.4625,269.4,OH NEWARK HEATH AP,
USW00004990,43.7347,-96.6222,485.9,SD SIOUX FALLS 14 NNE                 CRN,72660
USW00004994,48.3056,-95.8744,350.5,MN GOODRIDGE 12 NNW                   CRN,72647
USW00012804,27.65,-81.3333,20.1,FL AVON PARK GUNNERY RANGE,74796
USW00012809,27.95,-81.7833,57,FL BARTOW MUNI AP,
USW00012810,27.85,-82.5167,7.9,FL MACDILL AFB,74788
USW00012812,26.9172,-81.9914,7.6,FL PUNTA GORDA CHARLOTTE CO AP,
USW00012815,28.4339,-81.325,27.4,FL ORLANDO INTL AP,72205
USW00012816,29.6919,-82.2756,37.5,FL GAINESVILLE RGNL AP,74756
USW00012818,28.4736,-82.4544,23.5,FL BROOKSVILLE HERNANDO CO AP,
USW00012819,28.8208,-81.8097,23.5,FL LEESBURG MUNI AP,
USW00012824,28.55,-81.3333,34.1,FL ORLANDO AAF,
USW00012826,25.4833,-80.3833,4.9,FL HOMESTEAD AFB,
USW00012832,29.7333,-85.0333,5.8,FL APALACHICOLA AP,72220
USW00012833,29.6333,-83.1053,11.6,FL CROSS CITY AP,72212
USW00012834,29.1828,-81.0483,9.4,FL DAYTONA BEACH INTL AP,74787
USW00012835,26.585,-81.8614,4.6,FL FT MYERS PAGE FLD AP               HCN,
USW00012836,24.555,-81.7522,1.2,FL KEY WEST INTL AP               GSN HCN,72201
USW00012837,28.0833,-81.9167,49.1,FL LAKELAND,
USW00012838,28.1011,-80.6439,8.2,FL MELBOURNE INTL AP,72204
USW00012839,25.7906,-80.3164,8.8,FL MIAMI INTL AP,72202
USW00012841,28.5453,-81.3331,32.9,FL ORLANDO EXECUTIVE AP,
USW00012842,27.9619,-82.5403,5.8,FL TAMPA INTL AP                  GSN,72211
USW00012843,27.6531,-80.2428,8.5,FL VERO BEACH INTL AP,74793
USW00012844,26.6847,-80.0994,5.8,FL WEST PALM BEACH INTL AP,72203
USW00012847,29.0833,-81.4167,32,FL DELAND NAS,
USW00012849,26.0719,-80.1536,3.4,FL FT LAUDERDALE HOLLYWOOD AP,74783
USW00012850,24.5833,-81.6833,1.8,FL KEY WEST NAS,
USW00012851,28.1,-80.6333,17.1,FL MELBOURNE NAS,
USW00012852,25.9167,-80.2833,7.9,FL MIAMI MCAS,
USW00012853,25.6167,-80.4167,9.1,FL RICHMOND NAS,
USW00012854,28.7797,-81.2436,16.8,FL ORLANDO SANFORD AP,
USW00012855,27.65,-80.4167,15.8,FL VERO BEACH NAS,
USW00012858,24.5667,-81.8,7.9,FL KEY WEST,
USW00012859,25.7167,-80.2833,4.6,FL MIAMI WSO CITY,
USW00012863,28.9667,-89.3833,4,LA BURRWOOD WB,
USW00012867,28.2333,-80.6,3,FL COCOA BEACH PATRICK AFB,74795
USW00012868,28.4833,-80.5667,4.9,FL CAPE KENNEDY AFS,74794
USW00012871,27.4014,-82.5586,8.5,FL SARASOTA BRADENTON AP,
USW00012873,27.9106,-82.6875,3.4,FL ST PETERSBURG INTL AP,
USW00012876,28.0622,-81.7542,44.5,FL WINTER HAVEN GILBERT AP,
USW00012882,25.9069,-80.2803,3,FL MIAMI OPA LOCKA AP,
USW00012883,28.0206,-81.9219,44.2,FL LAKELAND,
USW00012884,29.3331,-89.4075,0.9,LA BOOTHVILLE ASOS,72232
USW00012885,26.1969,-80.1708,4.3,FL FT LAUDERDALE EXECUTIVE AP,
USW00012888,25.6475,-80.4331,3,FL MIAMI KENDALL TAMIAMI EXEC AP,
USW00012889,29.1431,-81.6328,28,FL PINECASTLE NF,
USW00012894,26.5361,-81.755,9.4,FL FT MYERS SW FL RGNL AP,
USW00012895,27.4981,-80.3767,7.3,FL FT PIERCE ST LUCIE CO INTL AP,
USW00012896,24.7258,-81.0517,2.4,FL MARATHON AP,
USW00012897,26.1522,-81.7753,2.7,FL NAPLES MUNI AP,
USW00012903,29.35,-99.1667,280.1,TX HONDO AFB,
USW00012904,26.2281,-97.6542,10.4,TX HARLINGEN RIO GRANDE AP,
USW00012906,29.6167,-95.1667,11.9,TX HOUSTON ELLINGTON AFB,
USW00012907,27.5333,-99.4667,153.9,TX LAREDO AFB,72252
USW00012909,29.3833,-98.5833,207.9,TX SAN ANTONIO KELLY AFB,
USW00012910,29.8833,-97.8667,178,TX SAN MARCOS GARY AFB,
USW00012911,29.5439,-98.2736,231.6,TX RANDOLPH AFB,
USW00012912,28.8614,-96.9303,35.1,TX VICTORIA RGNL AP,72255
USW00012916,29.9933,-90.2511,1.2,LA NEW ORLEANS INTL AP            GSN,72231
USW00012917,29.9506,-94.0206,4.9,TX PORT ARTHUR SE TX AP,72241
USW00012918,29.6381,-95.2819,13.4,TX HOUSTON HOBBY AP,72244
USW00012919,25.9156,-97.4186,7,TX BROWNSVILLE,72250
USW00012920,27.5333,-99.4667,152.4,TX LAREDO WB AP,
USW00012921,29.5442,-98.4839,240.5,TX SAN ANTONIO INTL AP            GSN HCN,72253
USW00012922,28.7833,-97.0833,35.1,TX VICTORIA WB AP,
USW00012923,29.2733,-94.8592,1.5,TX GALVESTON SCHOLES FLD,72242
USW00012924,27.7839,-97.5108,13.7,TX CORPUS CHRISTI                     HCN,72251
USW00012925,28.3667,-97.6667,60,TX BEEVILLE CHASE NAAS,
USW00012926,27.6833,-97.2833,5.5,TX CORPUS CHRISTI NAS,
USW00012927,29.5664,-90.6603,4,LA HOUMA TERREBONNE AP,
USW00012928,27.5,-97.8167,17.1,TX KINGSVILLE NAAS,
USW00012930,29.9167,-90.1303,6.1,LA NEW ORLEANS AUDUBON                HCN,
USW00012931,29.35,-98.45,182,TX SAN ANTONIO BROOKS AFB,
USW00012932,27.7411,-98.0247,52.7,TX ALICE INTL AP,
USW00012935,28.7247,-96.2536,3.7,TX PALACIOS MUNI AP,
USW00012944,29.3,-94.8,2.1,TX GALVESTON,
USW00012945,29.7667,-95.3667,15.8,TX HOUSTON WB CITY,
USW00012946,27.7,-97.4333,9.1,TX CORPUS CHRISTI CABANISS FLD,
USW00012947,28.4567,-99.2183,145.1,TX COTULLA LA SALLE CO AP,
USW00012957,26.1658,-97.3458,5.8,TX PORT ISABEL CAMERON AP,
USW00012958,29.8167,-90.0167,1.5,LA NEW ORLEANS ALVIN CALLENDER FL,
USW00012959,26.1839,-98.2539,30.5,TX MCALLEN MILLER INTL AP,
USW00012960,29.98,-95.36,29,TX HOUSTON INTERCONT AP,72243
USW00012962,29.36,-99.1742,280.4,TX HONDO MUNI AP,
USW00012968,29.5622,-91.5256,1.2,LA SALT POINT,
USW00012970,29.3389,-98.4719,174,TX SAN ANTONIO STINSON AP,
USW00012971,29.7036,-98.0281,192.9,TX AUSTIN SAN ANTONIO,
USW00012972,28.0836,-97.0464,6.7,TX ROCKPORT ARANSAS CO AP,
USW00012974,27.9,-98.05,78.3,TX ORANGE GROVE,
USW00012975,29.5189,-95.2417,13.4,TX HOUSTON CLOVER FLD,
USW00012976,29.1097,-95.4619,7.6,TX ANGLETON BRAZORIA AP,
USW00012977,29.6222,-95.6564,25,TX HOUSTON SUGARLAND MEM,
USW00012987,26.5258,-98.0633,19.5,TX EDINBURG 17 NNE                    CRN,72255
USW00013301,39.8667,-93.1469,253.9,MO CHILLICOTHE 22 ENE                 CRN,72555
USW00013701,39.4717,-76.1697,17.4,MD ABERDEEN PHILLIPS FLD,
USW00013702,37.0833,-76.35,3,VA LANGLEY AFB,74598
USW00013705,38.8167,-76.8667,86,MD CAMP SPRINGS ANDREWS AFB,74594
USW00013707,39.1333,-75.4667,7,DE DOVER AFB,
USW00013710,38.8333,-77.0167,18,MD WASHINGTON DC BOLLING FLD AFB,
USW00013713,35.3444,-77.9647,33.2,NC GOLDSBORO 4 SE                     HCN,
USW00013714,35.1739,-79.0089,66.4,NC POPE AFB,72303
USW00013717,33.6833,-78.9333,7.9,SC MYRTLE BEACH AFB,74791
USW00013721,38.3,-76.4167,11.9,MD PATUXENT RIVER NAS,72404
USW00013722,35.8922,-78.7819,126.8,NC RALEIGH DURHAM INTL AP         GSN,72306
USW00013723,36.0969,-79.9433,271.3,NC PIEDMONT TRIAD INTL AP,72317
USW00013724,39.3792,-74.4242,3,NJ ATLANTIC CITY                      HCN,
USW00013726,37.0833,-77.95,135.9,VA BLACKSTONE FAA AP,
USW00013728,36.5728,-79.3361,174,VA DANVILLE RGNL AP,
USW00013729,38.8853,-79.8528,603.2,WV ELKINS RANDOLPH CO AP,72417
USW00013730,39.4167,-77.4667,132.9,MD FREDERICK WFMD,
USW00013731,39,-78.2333,207.9,VA FRONT ROYAL 6 NNW,
USW00013732,38.0667,-78.15,135,VA GORDONSVILLE FAA AP,
USW00013733,37.3208,-79.2067,286.5,VA LYNCHBURG RGNL AP,72410
USW00013734,39.4019,-77.9844,162.8,WV MARTINSBURG E WV RGNL AP           HCN,
USW00013735,39.3667,-75.0667,21.3,NJ MILLVILLE MUNI AP,
USW00013736,39.6428,-79.9164,378,WV MORGANTOWN HART FLD,
USW00013737,36.9033,-76.1922,9.1,VA NORFOLK INTL AP                    HCN,72308
USW00013738,39,-79.1167,307.8,WV PETERSBURG WB CITY,
USW00013739,39.8683,-75.2311,3,PA PHILADELPHIA INTL AP,72408
USW00013740,37.505,-77.3203,50,VA RICHMOND INTL AP,72401
USW00013741,37.3169,-79.9742,358.1,VA ROANOKE RGNL AP,72411
USW00013742,37.6333,-76.5667,9.1,VA URBANNA WB CITY,
USW00013743,38.8483,-77.0342,3,VA WASHINGTON REAGAN AP           GSN,72405
USW00013744,34.1853,-79.7239,44.5,SC FLORENCE RGNL AP,
USW00013745,35.2167,-75.7167,4.6,NC HATTERAS,
USW00013746,35.9667,-77.8,25.9,NC ROCKY MT FAA AP,
USW00013747,36.4167,-78.15,132,NC WARRENTON WB AP,
USW00013748,34.2675,-77.8997,10.1,NC WILMINGTON INTL AP,72302
USW00013749,39.4333,-77.45,100,MD FREDERICK AF,
USW00013750,36.95,-76.2833,5.2,VA NORFOLK NAS,
USW00013751,38.85,-77.0333,15.8,MD ANACOSTIA NAS,
USW00013752,38.9833,-76.4667,2.4,MD ANNAPOLIS NAF,
USW00013753,39.45,-74.5833,20.1,NJ ATLANTIC CITY NAS,
USW00013754,34.9,-76.8833,8.8,NC CHERRY POINT MCAS,72309
USW00013755,37.9333,-75.4333,14.9,VA CHINCOTEAGUE NAS,
USW00013756,38.95,-74.8833,4.9,NJ CAPE MAY NAS,
USW00013758,32.85,-79.9333,2.1,SC CHARLESTON NAS,
USW00013760,38.3333,-77.0333,6.1,VA DAHLGREN WEAPONS LAB,
USW00013761,36.0167,-76.5667,13.1,NC EDENTON NAAS,
USW00013762,36.695,-76.1356,4.9,VA FENTRESS NAAS,
USW00013764,38.6892,-75.3592,15.5,DE GEORGETOWN SUSSEX CO AP,
USW00013765,36.1,-76.3333,7,NC HARVEY POINT NAAS,
USW00013766,35.9172,-75.7,4,NC MANTEO AP,
USW00013769,36.8167,-76.0333,7,VA OCEANA NAS,
USW00013771,39.8833,-75.1667,6.1,PA PHILADELPHIA NAAS,
USW00013773,38.5,-77.3,3,VA QUANTICO MCAS,
USW00013774,36.25,-76.1333,7,NC WEEKSVILLE NAF,
USW00013775,38.9833,-74.9167,17.1,NJ WILDWOOD NAS,
USW00013776,34.6081,-79.0592,36.9,NC LUMBERTON MUNI AP,
USW00013777,39.2833,-76.6167,4.3,MD BALTIMORE CUSTOMS HOUSE,
USW00013779,39.95,-75.15,7.9,PA PHILADELPHIA CITY,
USW00013780,37.5333,-77.4167,49.4,VA RICHMOND CHIMBORAZO PK,
USW00013781,39.6728,-75.6008,24.1,DE WILMINGTON NEW CASTLE CO AP,72418
USW00013782,32.78,-79.9319,3,SC CHARLESTON CITY                    HCN,
USW00013786,36.2606,-76.175,4,NC ELIZABETH CITY CGAS,72307
USW00013802,38.52,-89.8467,137.2,IL BELLEVILLE SIU RSCH,
USW00013803,39.2667,-85.9,199.9,IN COLUMBUS BAKALAR AP,72436
USW00013806,36.6667,-87.4833,173.1,KY FT CAMPBELL AAF,74671
USW00013807,37.9,-85.9667,224,KY GODMAN AFBU FT KNOX,
USW00013809,38.7642,-87.6056,130.8,IL LAWRENCEVILLE INTL AP,
USW00013810,38.2281,-85.6636,164.6,KY LOUISVILLE BOWMAN FLD,
USW00013812,39.8167,-82.9333,230.1,OH COLUMBUS RICKENBACKER,
USW00013813,39.7833,-84.1,245.1,OH WRIGHT PATTERSON AFB,
USW00013814,35.9667,-89.95,79.9,AR BLYTHEVILLE AFB,
USW00013815,31.5833,-84.1167,66.1,GA ALBANY NAS,
USW00013820,30.4167,-88.9167,7.9,MS BILOXI KEESLER AFB,
USW00013821,32.3833,-86.35,64,AL MAXWELL FLD,
USW00013822,34.7667,-82.3833,298.1,SC GREENVLLE DONALDSN AFB,
USW00013824,32.0167,-81.1333,17.1,GA SAVANNAH HUNTER FLD,
USW00013825,33.65,-88.45,68,MS COLUMBUS AFB,
USW00013827,36.0089,-86.52,165.5,TN SMYRNA AP,
USW00013829,32.35,-85,88.1,GA FT BENNING LAWSON FLD,72225
USW00013832,30.3667,-89.0833,0.9,MS GULFPORT LAS,74768
USW00013833,31.2819,-89.2531,46,MS HATTIESBURG CHAIN MUNI AP,74759
USW00013835,31.1333,-83.7,89,GA MOULTRIE SPENCE FLD AFB,
USW00013837,33.4669,-82.0386,128.9,GA AUGUSTA DANIEL FLD AP,
USW00013838,30.6264,-88.0681,7.9,AL MOBILE DWTN AP,
USW00013839,31.3214,-85.4497,112.8,AL DOTHAN RGNL AP,
USW00013840,39.8333,-84.05,250.9,OH WRIGHT PATTERSON AFB,74570
USW00013841,39.4203,-83.8217,321.9,OH CINCINNATI,72426
USW00013846,30.0667,-85.5833,7,FL TYNDALL AFB,74775
USW00013849,33.9667,-80.4667,74.1,SC SUMTER SHAW AFB,74790
USW00013850,32.3333,-86.9833,50,AL CRAIG AFB,
USW00013853,32.1333,-81.2,15.8,GA SAVANNAH CHATHAM FLD AAF,
USW00013857,30.9667,-83.2,73.2,GA VALDOSTA MOODY AFB,74781
USW00013858,30.4833,-86.5167,18,FL VALPARAISO EGLIN AFB,
USW00013860,32.6333,-83.6,92,GA WARNER ROBINS AFB,
USW00013861,31.25,-82.4,42.7,GA WAYCROSS WSMO,72213
USW00013864,33.9167,-84.5167,330.1,GA MARIETTA DOBBINS AFB,72227
USW00013865,32.3347,-88.7442,89.6,MS MERIDIAN KEY FLD               GSN,72234
USW00013866,38.3794,-81.59,277.4,WV CHARLESTON YEAGER AP,72414
USW00013867,39.2811,-81.5572,189,WV PARKERSBURG,
USW00013868,37.0833,-80.7833,668.1,VA PULASKI FAA AP,
USW00013869,31.5356,-84.1944,57.9,GA ALBANY SW GA RGNL AP,72216
USW00013870,31.5358,-82.5067,58.8,GA ALMA BACON CO AP,72316
USW00013871,33.5872,-85.8556,181.1,AL ANNISTON METRO AP,
USW00013872,35.5953,-82.5567,682.1,NC ASHEVILLE,
USW00013873,33.9481,-83.3275,239.3,GA ATHENS BEN EPPS AP,72311
USW00013874,33.63,-84.4417,307.8,GA ATLANTA HARTSFIELD INTL AP,72219
USW00013876,33.5656,-86.745,187.5,AL BIRMINGHAM AP,72228
USW00013877,36.4731,-82.4044,457.2,TN BRISTOL TRI CITY AP,72335
USW00013878,31.1522,-81.3908,4.9,GA BRUNSWICK MALCOLM MCKINNON AP,
USW00013880,32.8986,-80.0403,12.2,SC CHARLESTON INTL AP             GSN,72208
USW00013881,35.2236,-80.9553,221.9,NC CHARLOTTE DOUGLAS AP,72314
USW00013882,35.0311,-85.2014,204.5,TN CHATTANOOGA LOVELL AP          GSN,72324
USW00013883,33.9486,-81.1186,70.4,SC COLUMBIA,72310
USW00013884,30.7797,-86.5225,57.9,FL CRESTVIEW BOB SIKES AP,
USW00013885,31.4167,-87.0333,78,AL EVERGREEN FAA AP,
USW00013886,34.8461,-82.3461,319.4,SC GREENVILLE DWTN AP,
USW00013889,30.4844,-81.7019,10.1,FL JACKSONVILLE,72206
USW00013891,35.8181,-83.9858,293.2,TN KNOXVILLE MCGHEE TYSON AP,72326
USW00013892,32.8333,-83.5667,141.1,GA MACON,
USW00013893,35.0564,-89.9864,77.4,TN MEMPHIS INTL AP,72334
USW00013894,30.6794,-88.2397,63.4,AL MOBILE,72223
USW00013895,32.2997,-86.4075,61.6,AL MONTGOMERY AP,72226
USW00013896,34.7442,-87.5997,164.6,AL MUSCLE SHOALS RGNL AP              HCN,
USW00013897,36.1189,-86.6892,182.9,TN NASHVILLE INTL AP,72327
USW00013899,30.4781,-87.1869,34.1,FL PENSACOLA RGNL AP                  HCN,72222
USW00013902,34.65,-99.2667,413.9,OK ALTUS AFB,72352
USW00013903,34.3,-97.0167,221.9,OK ARDMORE AFB,
USW00013904,30.1831,-97.68,146.3,TX AUSTIN BERGSTROM AP,74745
USW00013905,30.6333,-96.4667,81.1,TX BRYAN CAA AP,
USW00013907,32.75,-96.9667,149,TX DALLAS HENSLEY FLD AFB,
USW00013909,36.3333,-97.9167,398.1,OK ENID VANCE AFB,
USW00013910,32.4333,-99.85,545,TX ABILENE DYESS AFB,69019
USW00013911,32.7667,-97.45,185.3,TX FT WORTH NAS,
USW00013919,35.4167,-97.3833,384,OK OKLAHOMA CITY TINKER AFB,72354
USW00013920,38.9503,-95.6639,325.2,KS TOPEKA FORBES FLD,
USW00013921,39.3667,-94.9167,0,KS FT LEAVENWORTH AFB,
USW00013922,38.8,-97.65,387.4,KS SALINA FAA AP,
USW00013923,33.7167,-96.6667,232.9,TX PERRIN,
USW00013927,32.3367,-90.2214,104.2,MS JACKSON HAWKINS FLD,
USW00013928,31.6333,-97.0667,153,TX WACO J CONNALLY AFB,
USW00013930,38.7167,-93.55,255.1,MO WHITEMAN AFB,
USW00013932,37.1681,-97.0369,350.5,KS WINFIELD STROTHER FLD AP,
USW00013934,31.3167,-92.55,27.1,LA ENGLAND AFB,74754
USW00013935,31.3928,-92.2956,34.1,LA ALEXANDRIA ESLER RGNL AP,
USW00013939,33.4825,-90.9853,39,MS GREENVILLE ASOS,74768
USW00013941,30.2167,-93.15,4.9,LA LAKE CHARLES CHENAULT,
USW00013942,32.5156,-92.0406,24.1,LA MONROE RGNL AP,
USW00013944,32.5,-93.6667,53.9,LA SHREVEPORT BARKSDALE AFB,
USW00013945,34.65,-98.4,369.1,OK FT SILL POST FLD AF,72355
USW00013947,39.05,-96.7667,324.6,KS FT RILEY MARSHALL AAF,72455
USW00013955,31.1333,-97.7167,281.9,TX KILEEN FT HOOD S AAF,
USW00013956,32.3333,-90.2333,98.1,MS JACKSON 4 NW,
USW00013957,32.4506,-93.8411,83.2,LA SHREVEPORT                     GSN,72248
USW00013958,30.3208,-97.7603,204.2,TX AUSTIN-CAMP MABRY,72254
USW00013959,31.6189,-97.2283,152.4,TX WACO RGNL AP,72256
USW00013960,32.8519,-96.8556,134.1,TX DALLAS LOVE FLD,72258
USW00013961,32.8192,-97.3614,209.4,TX FT WORTH MEACHAM FLD,74739
USW00013962,32.4106,-99.6822,545.6,TX ABILENE RGNL AP                GSN,72266
USW00013963,34.7272,-92.2389,78.6,AR LITTLE ROCK AP ADAMS FLD,
USW00013964,35.3331,-94.3625,136.9,AR FT SMITH RGNL AP               GSN,72344
USW00013965,34.3,-97.0167,221,OK ARDMORE FAA AP,
USW00013966,33.9786,-98.4928,310,TX WICHITA FALLS MUNI AP,72351
USW00013967,35.3889,-97.6006,391.7,OK OKLAHOMA CITY WILL ROGERS AP   GSN,72353
USW00013968,36.1994,-95.8872,198.1,OK TULSA INTL AP,72356
USW00013969,36.7367,-97.1019,304.8,OK PONCA CITY MUNI AP,72453
USW00013970,30.5372,-91.1469,19.5,LA BATON ROUGE RYAN AP                HCN,
USW00013971,36.2667,-93.1567,418.8,AR HARRISON BOONE CO AP,72345
USW00013972,32.3542,-95.4025,165.8,TX TYLER POUNDS FLD,
USW00013973,30.5108,-99.7664,533.1,TX JUNCTION KIMBLE CO AP,74740
USW00013975,36.2967,-99.7689,667.8,OK GAGE AP,74641
USW00013976,30.205,-91.9875,11.6,LA LAFAYETTE RGNL AP                  HCN,
USW00013977,33.4536,-94.0075,110,AR TEXARKANA WEBB FLD,
USW00013978,33.4964,-90.0867,40.5,MS GREENWOOD LEFLORE AP,74758
USW00013979,32.4,-90.7833,36.9,MS VICKSBURG CAA AP,
USW00013980,37.155,-98.0283,408.4,KS ANTHONY                            HCN,
USW00013981,37.6703,-95.4842,300.2,KS CHANUTE MARTIN JOHNSON AP,
USW00013982,39.8,-93.55,241.1,MO CHILLICOTHE RADIO KCHI,
USW00013983,38.9667,-92.3667,237.1,MO COLUMBIA WSO AP,
USW00013984,39.5514,-97.6508,447.8,KS CONCORDIA MUNI AP              GSN,72458
USW00013985,37.7608,-99.9683,789.4,KS DODGE CITY                     GSN,72451
USW00013986,38.0653,-97.8606,470.3,KS HUTCHINSON MUNI AP,
USW00013987,37.1467,-94.5022,298.7,MO JOPLIN REGIONAL  AIRPORT,
USW00013988,39.1208,-94.5969,226.2,MO KANSAS CITY DOWNTOWN AP,
USW00013989,38.3306,-96.1897,368.5,KS EMPORIA MUNI AP,
USW00013990,38.4333,-95.8,352,KS LEBO CAA AP,
USW00013991,39.1342,-93.2225,240.8,MO MARSHALL,
USW00013992,38.9167,-91.45,267.9,MO NEW FLORENCE,
USW00013993,39.7736,-94.9233,249.3,MO ST JOSEPH ROSECRANS AP,72449
USW00013994,38.7525,-90.3736,161.8,MO ST LOUIS LAMBERT INTL AP,72434
USW00013995,37.2353,-93.4003,389.5,MO SPRINGFIELD,72440
USW00013996,39.0725,-95.6261,267,KS TOPEKA MUNI AP,72456
USW00013997,38.1311,-91.7683,343.5,MO VICHY ROLLA NATIONAL AP,72442
USW00013998,37.6833,-97.35,387.1,KS WICHITA,
USW00013999,35.3667,-99.1833,585.8,OK CLINTON NAS,
USW00014601,44.8,-68.8167,52.1,ME DOW AFB,
USW00014604,46.6833,-68.05,1480.1,ME PRESQUE ISLE AP,
USW00014605,44.3206,-69.7972,106.7,ME AUGUSTA STATE AP,
USW00014606,44.7978,-68.8186,45.1,ME BANGOR INTL AP,72607
USW00014607,46.8706,-68.0172,190.2,ME CARIBOU MUNI AP                GSN,72712
USW00014609,46.1236,-67.7928,145.1,ME HOULTON INTL AP,
USW00014610,45.6478,-68.6925,123.7,ME MILLINOCKET MUNI AP,
USW00014611,43.9,-69.9333,21.3,ME BRUNSWICK NAS,74392
USW00014622,44.95,-68.6667,41.1,ME OLD TOWN FAA AP,
USW00014623,46.95,-67.8833,228.9,ME LIMESTONE LORING AFB,
USW00014657,41.6833,-67.7833,25.9,MA GEORGES SHOALS AFS,
USW00014658,41.0167,-69.5,27.1,MA NANTUCKET SHOALS AFS,
USW00014702,42.47,-71.2894,40.5,MA BEDFORD HANSCOM FLD,74490
USW00014703,42.2,-72.5333,75,MA CHICOPEE FALLS WESTOVER FLD,74491
USW00014704,41.65,-70.5167,39.9,MA FALMOUTH OTIS AFB,72506
USW00014706,40.0167,-74.6,45.1,NJ MCGUIRE AFB,
USW00014707,41.3275,-72.0494,3,CT GROTON NEW LONDON AP,
USW00014708,40.7333,-73.6,29.9,NY MITCHELL FLD,
USW00014710,42.9333,-71.4383,68.6,NH MANCHESTER AP,
USW00014711,40.1936,-76.7633,95.1,PA MIDDLETOWN HARRISBURG INTL AP,72399
USW00014712,40.3667,-75.9667,103.9,PA READING SPAATZ FLD,
USW00014714,41.5,-74.1,177.1,NY STEWART FLD,
USW00014715,44.05,-75.7333,214,NY WHEELER SACK FLD AAF,74370
USW00014717,43.2333,-75.4,158.2,NY GRIFFISS AFB,
USW00014719,40.8436,-72.6322,20.4,NY WESTHAMPTN GABRESKI AP,
USW00014732,40.7794,-73.8803,3.4,NY NEW YORK LAGUARDIA AP,72503
USW00014733,42.9486,-78.7369,211.2,NY BUFFALO                            HCN,72528
USW00014734,40.6825,-74.1694,2.1,NJ NEWARK INTL AP,72502
USW00014735,42.7431,-73.8092,95.1,NY ALBANY AP                          HCN,72518
USW00014736,40.2964,-78.3203,451.1,PA ALTOONA BLAIR CO AP,
USW00014737,40.6508,-75.4492,118.9,PA ALLENTOWN INTL AP                  HCN,72517
USW00014738,42.0833,-76.1,253.9,NY BINGHAMTON WB AP,
USW00014739,42.3606,-71.0106,3.7,MA BOSTON LOGAN INTL AP,72509
USW00014740,41.9381,-72.6825,57.9,CT HARTFORD BRADLEY INTL AP,72508
USW00014741,41.15,-79.1,427,PA BROOKVILLE FAA AP,
USW00014742,44.4683,-73.15,100.6,VT BURLINGTON INTL AP             GSN HCN,72617
USW00014743,44.5772,-75.1097,136.6,NY CANTON 4 SE                        HCN,
USW00014745,43.1953,-71.5011,105.5,NH CONCORD MUNI AP,72605
USW00014746,41.05,-78.5833,675.1,PA CURWENSVILLE WB AP,
USW00014747,42.4933,-79.2722,203,NY DUNKIRK CHAUTAUQUA AP,
USW00014748,42.1594,-76.8919,291.1,NY ELMIRA CORNING RGNL AP,
USW00014749,42.9667,-74.6667,217,NY FT PLAIN WB AP,
USW00014750,43.35,-73.6167,97.8,NY GLENS FALLS AP,72522
USW00014751,40.2172,-76.8514,103.6,PA HARRISBURG CPTL CY AP,72511
USW00014752,41.7361,-72.6506,5.8,CT HARTFORD BRAINARD FLD,
USW00014753,42.2122,-71.1136,190.5,MA BLUE HILL                      GSN,74492
USW00014754,41.1386,-75.2225,584,PA TOBYHANNA POCONO MTN AP,
USW00014755,44.2667,-71.2994,1910.2,NH MT WASHINGTON                  GSN,72613
USW00014756,41.2531,-70.0608,13.7,MA NANTUCKET MEM AP,
USW00014757,41.6267,-73.8842,50.6,NY POUGHKEEPSIE DUTCHESS CO AP        HCN,
USW00014758,41.2639,-72.8872,0.9,CT NEW HAVEN TWEED AP,
USW00014760,40.85,-76.1167,591,PA PARK PLACE WB,
USW00014761,40.9167,-78.0667,592.8,PA PHILIPSBURG 8 E,
USW00014762,40.3547,-79.9217,380.4,PA PITTSBURGH ALLEGHENY CO AP,
USW00014763,42.4272,-73.2892,363.9,MA PITTSFIELD MUNI AP,
USW00014764,43.6497,-70.3003,13.7,ME PORTLAND INTL JETPORT              HCN,72606
USW00014765,41.7219,-71.4325,18.3,RI PROVIDENCE T F GREEN AP            HCN,72507
USW00014767,40.3333,-75.9667,88.1,PA READING WB CITY,
USW00014768,43.1167,-77.6767,162.5,NY ROCHESTER GTR INTL AP              HCN,72529
USW00014770,40.8206,-76.8642,135.3,PA SELINSGROVE PENN VLY AP,
USW00014771,43.1111,-76.1039,125.9,NY SYRACUSE HANCOCK INTL AP       GSN HCN,72519
USW00014772,43.8833,-73.4,64,NY TICONDEROGA 3 NE,
USW00014773,40.2269,-74.7464,57.9,NJ TRENTON,
USW00014774,43.1667,-75.3167,163.1,NY UTICA AP,
USW00014775,42.1578,-72.7161,82.6,MA WESTFIELD BARNES MUNI AP,
USW00014776,43.6333,-72.3167,173.1,NH LEBANON CAA AP,
USW00014777,41.3336,-75.7269,283.5,PA WILKES-BARRE INTL AP,72513
USW00014778,41.2433,-76.9217,158.5,PA WILLIAMSPORT                       HCN,72514
USW00014780,40.0333,-74.3167,36.9,NJ LAKEHURST AP,
USW00014781,42.5667,-71.6,82,MA AYER,
USW00014782,41.3333,-71.6667,14.9,RI CHARLESTOWN NAAS,
USW00014784,44.05,-70.25,82.9,ME LEWISTON NAAF,
USW00014786,40.5833,-73.8833,4.9,NY NEW YORK FLOYD BENNETT FLD,
USW00014787,41.5333,-71.2833,52.4,RI NEWPORT STATE AP,
USW00014788,41.5833,-71.4167,9.1,RI QUONSET PT NAS,
USW00014789,42.2667,-71.0333,4.9,MA SQUANTUM NAS,
USW00014790,42.15,-70.9333,47.9,MA SOUTH WEYMOUTH NAS,
USW00014791,43.4,-70.75,79.9,ME SANFORD,
USW00014792,40.2769,-74.8158,56.1,NJ TRENTON MERCER CO AP,
USW00014793,40.2,-75.15,110,PA WILLOW GROVE NAS,
USW00014794,41.3497,-71.7989,24.7,RI WESTERLY STATE AP,
USW00014797,41.3167,-74,396.8,NY BEAR MTN WB,
USW00014798,42.1,-75.9167,277.1,NY BINGHAMTON WB CITY,
USW00014799,41.1667,-71.5667,13.1,RI BLOCK ISLAND,
USW00014804,42.6083,-82.8183,176.8,MI MT CLEMENS ANG BASE                HCN,
USW00014805,41.0167,-85.2167,246.9,IN FT WAYNE BAER FLD,
USW00014806,40.3131,-88.1594,225.6,IL RANTOUL,
USW00014808,44.45,-83.4,188.1,MI OSCODA WURTSMITH AP,
USW00014809,40.4833,-80.2167,353,PA GTR PITTSBURGH AFB,
USW00014810,42.0169,-87.8333,200.9,IL PARK RIDGE,
USW00014812,41.2833,-80.2,394.1,PA MERCER WB AP,
USW00014813,41.0375,-81.4642,318.2,OH AKRON FULTON INTL AP,
USW00014814,45.0606,-83.4281,179.8,MI ALPENA WWTP,
USW00014815,42.3075,-85.2511,282.9,MI BATTLE CREEK KELLOGG AP,
USW00014816,41.2333,-89.6167,242,IL BRADFORD FAA AP,
USW00014817,44.2656,-85.3967,394.7,MI CADILLAC,
USW00014819,41.7861,-87.7522,186.5,IL CHICAGO MIDWAY AP,72534
USW00014820,41.4131,-81.86,232.6,OH CLEVELAND,72524
USW00014821,39.9914,-82.8808,246.9,OH COLUMBUS PORT COLUMBUS INTL AP,72428
USW00014822,42.4092,-83.01,190.8,MI DETROIT CITY AP,
USW00014823,40.6833,-80.6333,355.1,OH EAST LIVERPOOL WB AP,
USW00014824,45.7181,-87.0939,179.8,MI ESCANABA,72648
USW00014825,41.0136,-83.6686,243.8,OH FINDLAY AP,
USW00014826,42.9667,-83.7494,234.7,MI FLINT BISHOP INTL AP,72637
USW00014827,40.9706,-85.2064,241.1,IN FT WAYNE INTL AP,72533
USW00014828,43.9758,-84.4908,236.2,MI GLADWIN,
USW00014829,41.5272,-85.7922,252.1,IN GOSHEN MUNI AP,
USW00014830,42.9,-85.6667,213.1,MI GRAND RAPIDS WB AP,
USW00014833,42.2667,-84.4667,304.2,MI JACKSON REYNOLDS FLD,
USW00014834,41.55,-88.0833,167.9,IL JOLIET,
USW00014835,40.4122,-86.9369,182.6,IN LAFAYETTE PURDUE UNIV AP,
USW00014836,42.7803,-84.5789,256.3,MI LANSING CAPITAL CITY AP,72539
USW00014837,43.1406,-89.3453,264,WI MADISON DANE RGNL AP,72641
USW00014838,46.5458,-87.3794,202.7,MI MARQUETTE                      GSN,72743
USW00014839,42.955,-87.9044,204.2,WI MILWAUKEE MITCHELL AP,72640
USW00014840,43.1711,-86.2367,190.5,MI MUSKEGON CO AP,72636
USW00014841,45.5644,-84.7928,214.9,MI PELLSTON RGNL AP,
USW00014842,40.6675,-89.6839,198.1,IL PEORIA GTR PEORIA AP           GSN,72532
USW00014843,41.7833,-81.1,210.9,OH PERRY CAA AP,
USW00014844,42.35,-89.05,225.9,IL ROCKFORD CAA AP,
USW00014845,43.5331,-84.0797,201.2,MI SAGINAW MBS INTL AP,
USW00014846,41.45,-82.7167,178,OH SANDUSKY,
USW00014847,46.4794,-84.3572,220.1,MI SAULT STE MARIE SANDERSON FLD,72734
USW00014848,41.7072,-86.3164,235.6,IN SOUTH BEND MICHIANA RGNL AP,72535
USW00014849,41.5667,-83.4667,193.9,OH TOLEDO WB AP,
USW00014850,44.7408,-85.5825,188.4,MI TRAVERSE CITY CHERRY CPTL AP,
USW00014852,41.2544,-80.6739,359.7,OH YOUNGSTOWN RGNL AP,72525
USW00014853,42.2333,-83.5333,236.8,MI DETROIT WILLOW RUN AP,
USW00014854,40.6667,-86.1167,246,IN BUNKER HILL NAS,
USW00014855,42.0833,-87.8333,196.9,IL GLENVIEW NAS,
USW00014856,42.1,-83.1667,180.1,MI GROSSE ILE NAS,
USW00014857,44.7167,-85.55,189.9,MI TRAVERSE CITY,
USW00014858,47.1686,-88.4889,333.8,MI HANCOCK HOUGHTON CO AP,72744
USW00014859,46.6667,-85.95,190.2,MI GRAND MARAIS 2 E,
USW00014860,42.08,-80.1825,222.5,PA ERIE INTL AP                       HCN,72526
USW00014861,40.45,-80,310,PA PITTSBURGH WSO CITY,
USW00014874,40.7167,-89.6,-999.9,IL PEORIA CITY OFFICE,
USW00014880,42.4167,-87.8667,221.6,IL CHICAGO WAUKEGAN RGNL AP,
USW00014881,41.8883,-87.6258,182.9,IL FORT DEARBORN,
USW00014891,40.8203,-82.5178,394.7,OH MANSFIELD LAHM MUNI AP,72420
USW00014892,41.7833,-87.6,181.1,IL CHICAGO UNIV,
USW00014894,40.1764,-80.6472,359.4,WV WHEELING OHIO CO AP,
USW00014895,40.9167,-81.4333,368.2,OH AKRON CANTON RGNL AP,72521
USW00014896,41.0333,-81.4833,323.1,OH AKRON NAS,
USW00014897,44.9258,-89.6256,360,WI WAUSAU DWTN AP,72646
USW00014898,44.4983,-88.1111,207.9,WI GREEN BAY,72645
USW00014904,40.85,-96.7667,356,NE LINCOLN AFB,
USW00014910,45.8678,-95.3942,431.6,MN ALEXANDRIA MUNI AP,
USW00014912,48.1069,-98.8681,446.2,ND DEVILS LAKE KDLR,
USW00014913,46.8369,-92.2097,435.3,MN DULUTH,72745
USW00014914,46.9253,-96.8111,274.3,ND FARGO HECTOR INTL AP,72753
USW00014916,47.9428,-97.1839,256.6,ND GRAND FORKS INTL AP,72757
USW00014918,48.5614,-93.3981,360.6,MN INTL FALLS INTL AP,72747
USW00014919,46.9258,-98.6692,455.4,ND JAMESTOWN MUNI AP,
USW00014920,43.8789,-91.2528,198.7,WI LA CROSSE MUNI AP,72643
USW00014921,43.2119,-90.1814,218.5,WI LONE ROCK TRI CO AP,
USW00014922,44.8831,-93.2289,265.8,MN MINNEAPOLIS/ST PAUL AP         GSN HCN,72658
USW00014923,41.4653,-90.5233,180.4,IL MOLINE QUAD CITY INTL AP,72544
USW00014924,48.9711,-97.2417,240.8,ND PEMBINA                            HCN,
USW00014925,43.9042,-92.4917,397.5,MN ROCHESTER INTL AP,72644
USW00014926,45.5433,-94.0514,310.3,MN ST CLOUD RGNL AP,72655
USW00014927,44.9319,-93.0556,213.4,MN ST PAUL DOWNTOWN AP,
USW00014928,45.1167,-95.0833,345,MN WILLMAR AP,
USW00014929,45.4558,-98.4131,396.8,SD ABERDEEN                           HCN,72659
USW00014930,41.45,-95.0667,353,IA ATLANTIC CAA AP,
USW00014931,40.7833,-91.1253,210.9,IA BURLINGTON MUNI AP,72542
USW00014932,41.5167,-90.5667,173.1,IA DAVENPORT L&D 15,
USW00014933,41.5339,-93.6531,291.7,IA DES MOINES INTL AP             GSN,72546
USW00014934,42.4,-90.7,177.1,IA DUBUQUE RIVER,
USW00014935,40.9611,-98.3136,560.8,NE GRAND ISLAND AP,72552
USW00014936,44.3981,-98.2231,390.1,SD HURON RGNL AP                  GSN,72654
USW00014937,41.6328,-91.5431,198.1,IA IOWA CITY MUNI AP,
USW00014938,40.0972,-92.5433,294.4,MO KIRKSVILLE RGNL AP,
USW00014939,40.8508,-96.7475,362.7,NE LINCOLN MUNI AP,72551
USW00014940,43.1544,-93.3269,373.4,IA MASON CITY MUNI AP,
USW00014941,41.9856,-97.4353,472.7,NE NORFOLK KARL STEFAN AP         GSN,72556
USW00014942,41.3103,-95.8992,299.3,NE OMAHA EPPLEY AIRFIELD,72550
USW00014943,42.3914,-96.3792,333.8,IA SIOUX CITY GATEWAY AP,72557
USW00014944,43.5878,-96.7289,435.9,SD SIOUX FALLS,72651
USW00014945,40.4344,-95.3883,318.5,MO TARKIO,
USW00014946,44.9047,-97.1494,532.8,SD WATERTOWN RGNL AP                  HCN,
USW00014947,44.8833,-93.2167,255.1,MN MINNEAPOLIS NAS,
USW00014948,41.1,-92.4333,257.9,IA OTTUMWA NAS,
USW00014949,41.1167,-95.9167,319.1,NE BELLEVUE OFFUTT AFB,72554
USW00014950,41.1078,-92.4467,256.6,IA OTTUMWA INDUSTRIAL AP,
USW00014971,40.8233,-96.7025,353.6,NE LINCOLN UNIV PWR PLT,
USW00014972,43.1644,-95.2017,407.8,IA SPENCER MUNI AP,72650
USW00014990,41.8833,-91.7167,264.6,IA CEDAR RAPIDS MUNI AP,72545
USW00014991,44.8664,-91.4878,269.7,WI EAU CLAIRE RGNL AP,
USW00014992,44.5483,-95.0803,311.2,MN REDWOOD FALLS MUNI AP,
USW00014993,40.65,-94,356,IA LAMONI,
USW00014994,40.75,-99.6167,714.1,NE LEXINGTON 7 ESE,
USW00014995,45.7728,-92.6886,301.8,WI GRANTSBURG,
USW00021503,19.7167,-155.05,11.9,HI HILO NAS,
USW00021504,19.7192,-155.0531,11.6,HI HILO INTL AP                   GSN,91285
USW00021508,19.76,-155.5536,1798.3,HI BRADSHAW AAF,
USW00021510,19.7356,-156.0489,13.1,HI KAILUA KONA KE-AHOLE AP,
USW00021514,19.5353,-155.5761,3407.4,HI MAUNA LOA 5 NNE                    CRN,
USW00021515,19.645,-155.0828,189.6,HI HILO 5 S                           CRN,
USW00022001,29.3667,-100.7833,327.1,TX DEL RIO LAUGHLIN AFB,
USW00022004,29.3667,-100.9,292.9,TX DEL RIO WB CITY,
USW00022010,29.3783,-100.9269,304.5,TX DEL RIO INTL AP,72261
USW00022016,29.3483,-103.2092,1065,TX PANTHER JUNCTION 2 N               CRN,74728
USW00022501,22.0333,-159.7833,4,HI BARKING SANDS,91162
USW00022504,21.3333,-157.95,3,HI HICKAM AFB,
USW00022508,21.4833,-158.0333,257.9,HI WHEELER AAF 810.1,
USW00022514,21.3167,-158.0667,15.2,HI BARBERS POINT NAS,91178
USW00022515,21.3333,-158.05,20.1,HI EWA MCAS,
USW00022516,20.8997,-156.4286,15.5,HI KAHULUI AP,91190
USW00022517,21.35,-157.95,10.1,HI HICKMAN FLD,
USW00022519,21.45,-157.7833,3,HI KANEOHE BAY MCAS,91176
USW00022521,21.3239,-157.9294,2.1,HI HONOLULU INTL AP,91182
USW00022522,21.3167,-157.8667,4,HI HONOLULU SUBSTN 407,
USW00022525,20.8333,-156.4667,39.9,HI PUUNENE,
USW00022526,21.9,-159.6,9.1,HI PORT ALLEN,
USW00022534,21.1544,-157.0961,135,HI MOLOKAI AP,91186
USW00022536,21.9839,-159.3405,30.5,HI LIHUE WSO AP 1020.1            GSN,91165
USW00022551,21.3167,-158.0667,16.5,HI EWA KALAELOA AP,91178
USW00022602,23.7833,-166.2167,2.1,HI FRNCH FRIGAT SHS NAS,
USW00022703,28.2167,-177.3833,6.1,UM MIDWAY ISLAND,
USW00023002,32.85,-106.1,1267.4,NM HOLLOMAN AFB,74732
USW00023004,35.05,-106.6167,1634.9,NM KIRTLAND AFB,
USW00023005,32.2167,-101.5167,780.9,TX WEBB AFB,74731
USW00023007,34.4272,-100.2831,594.7,TX CHILDRESS MUNI AP,72366
USW00023008,34.3833,-103.3167,1309.1,NM CLOVIS CANNON AFB,
USW00023009,33.3075,-104.5083,1112.2,NM ROSWELL IND AIR PK                 HCN,72268
USW00023012,39.7167,-104.9,1645,CO DENVER LOWRY AFB,
USW00023017,31.4,-100.4,573,TX SAN ANGELO GOODFELLOW AFB,
USW00023019,31.8333,-106.4,1196,TX BIGGS AFB,
USW00023021,33.6,-102.05,1014.1,TX REESE AFB,
USW00023023,31.9433,-102.1889,874.2,TX MIDLAND ODESSA,72265
USW00023034,31.3711,-100.4922,576.1,TX SAN ANGELO,72263
USW00023036,39.7167,-104.75,1726.1,CO AURORA BUCKLEY FLD ANGB,
USW00023039,32.3833,-106.4833,1291.7,NM LAS CRUCES WHITE SANDS MISSILE,72269
USW00023040,31.78,-103.2017,855.6,TX WINKLER CO AP,
USW00023041,32.2442,-101.4536,765,TX BIG SPRING,
USW00023042,33.6542,-101.8136,993.3,TX LUBBOCK,72267
USW00023043,33.4,-104.5333,1106.1,NM ROSWELL MUNI AP,
USW00023044,31.8111,-106.3758,1194.2,TX EL PASO INTL AP                GSN HCN,72270
USW00023045,31.9333,-108.9833,1254.9,NM RODEO CAA AP,
USW00023046,33.2333,-107.0167,1478,NM ENGLE CAA AP,
USW00023047,35.2333,-101.7089,1093.3,TX AMARILLO,72363
USW00023048,35.1822,-103.6031,1239,NM TUCUMCARI MUNI AP,
USW00023049,35.6169,-106.0889,1933.7,NM SANTA FE CO MUNI AP,
USW00023050,35.0419,-106.6156,1618.5,NM ALBUQUERQUE INTL AP            GSN,72365
USW00023051,36.4486,-103.1539,1511.8,NM CLAYTON MUNI AIR PK            GSN HCN,72360
USW00023052,36.7414,-104.5022,1935.2,NM RATON MUNI CREWS AP,
USW00023053,35.5333,-100.9667,985.1,TX PAMPA WB AP,
USW00023054,35.6542,-105.1419,2095.2,NM LAS VEGAS MUNI AP,
USW00023055,31.8311,-104.8089,1663,TX PINE SPRINGS NP,72262
USW00023056,35.0833,-106.0167,1900.1,NM OTTO FAA AP,
USW00023057,35.05,-107.7167,2007.1,NM ACOMITA CAA AP,
USW00023058,31.8297,-107.6389,1239,NM COLUMBUS,
USW00023059,31.75,-105.0833,1132.9,TX SALT FLAT CAA AP,
USW00023060,35.0167,-108.4,2171.1,NM EL MORRO CAA AP,
USW00023061,37.4389,-105.8614,2296.1,CO ALAMOSA SAN LUIS AP,72462
USW00023062,39.7633,-104.8694,1611.2,CO DENVER-STAPLETON,72469
USW00023063,39.65,-106.9167,1980.3,CO EAGLE FAA AP,
USW00023064,37.9272,-100.7247,878.4,KS GARDEN CITY RGNL AP,
USW00023065,39.3669,-101.7,1112.8,KS GOODLAND,72465
USW00023066,39.1342,-108.54,1480.7,CO GRAND JUNCTION WALKER FLD      GSN,72476
USW00023067,38.0494,-103.5122,1278.3,CO LA JUNTA MUNI AP,
USW00023068,38.2725,-104.6089,1420.4,CO PUEBLO,
USW00023070,37.2622,-104.3378,1749.9,CO TRINIDAD PERRY STOKES AP,
USW00023072,34.9325,-100.8903,823,TX CLARENDON,
USW00023078,32.2622,-107.7206,1310.9,NM DEMING MUNI AP,
USW00023080,31.7833,-106.5,1150,TX EL PASO,
USW00023081,35.5144,-108.7939,1972.4,NM GALLUP MUNI AP,
USW00023090,36.7436,-108.2292,1674.9,NM FARMINGTON RGNL AP,
USW00023091,30.9119,-102.9167,917.4,TX FT STOCKTON PECOS AP,
USW00023104,33.2892,-111.6692,412.4,AZ PHOENIX,
USW00023109,32.1667,-110.8833,808.9,AZ DAVIS MONTHAN AFB,
USW00023110,36.3333,-119.95,70.7,CA LEMOORE REEVES NAS,74702
USW00023111,33.55,-112.3667,331,AZ PHOENIX LUKE AFB,
USW00023112,36.25,-115.0333,573,NV LAS VEGAS NELLIS AFB,
USW00023114,34.9,-117.8667,705.9,CA EDWARDS AFB,72381
USW00023118,39.6667,-119.8667,1531.9,NV STEAD AFB,
USW00023119,33.9,-117.25,462.1,CA MARCH AFB,72286
USW00023122,34.1,-117.25,338.9,CA NORTON AFB,
USW00023129,33.8117,-118.1464,9.4,CA LONG BEACH DAUGHERTY FLD,72297
USW00023130,34.2097,-118.4892,234.7,CA VAN NUYS AP,
USW00023131,34.5833,-117.3833,869,CA VICTORVILLE SO CA AP,
USW00023136,34.2167,-119.0833,23.5,CA CAMARILLO AP,
USW00023141,36.5833,-115.6833,951.9,NV INDIAN SPRINGS,74614
USW00023152,34.2006,-118.3575,225.9,CA BURBANK GLENDALE PASADENA AP,72288
USW00023153,38.0511,-117.0903,1644.4,NV TONOPAH,
USW00023154,39.2953,-114.8467,1908.7,NV ELY YELLAND FLD AP             GSN,72486
USW00023155,35.4344,-119.0542,149,CA BAKERSFIELD AP,72384
USW00023156,33.9286,-116.9814,789.7,CA BEAUMONT #2,
USW00023157,37.3711,-118.3581,1250.3,CA BISHOP AP,72480
USW00023158,33.6186,-114.7142,120.4,CA BLYTHE AP,
USW00023159,37.7064,-112.1456,2312.2,UT BRYCE CANYON AP,
USW00023160,32.1314,-110.9553,776.9,AZ TUCSON INTL AP,72274
USW00023161,34.8536,-116.7858,584.3,CA BARSTOW DAGGETT AP,
USW00023162,39.3375,-112.5858,1408.2,UT DELTA,72479
USW00023166,35.2,-111.6667,2110.1,AZ FLAGSTAFF WB CITY,
USW00023168,32.95,-112.7167,220.1,AZ GILA BEND AVIATION,
USW00023169,36.0719,-115.1633,649.5,NV LAS VEGAS MCCARRAN AP          GSN,72386
USW00023170,38.3706,-110.7153,1313.1,UT HANKSVILLE                         HCN,
USW00023172,33.6833,-116.1667,-20.1,CA COACHELLA INDIO CAA,
USW00023173,36.2333,-115.0333,573.9,NV LAS VEGAS WB AP,
USW00023174,33.9381,-118.3889,29.6,CA LOS ANGELES INTL AP,72295
USW00023176,38.4167,-113.0167,1536.2,UT MILFORD MUNI AP,72475
USW00023177,37.7981,-113.9256,1664.2,UT MODENA                             HCN,
USW00023178,32.8667,-116.4167,1893.1,CA MT LAGUNA CAA AP,
USW00023179,34.7675,-114.6189,271.3,CA NEEDLES AP                         HCN,
USW00023180,34.4,-118.55,370,CA NEWHALL AP,
USW00023181,33.2333,-117.4167,7.9,CA OCEANSIDE CAA AP,
USW00023182,34.6294,-118.0836,769.3,CA PALMDALE AP,72382
USW00023183,33.4278,-112.0039,337.4,AZ PHOENIX SKY HARBOR INTL AP     GSN,72278
USW00023184,34.6517,-112.4208,1536.8,AZ PRESCOTT LOVE FLD,
USW00023185,39.4839,-119.7711,1344.2,NV RENO TAHOE INTL AP                 HCN,72488
USW00023187,34.7436,-118.7242,1374.6,CA SANDBERG,72383
USW00023188,32.7336,-117.1831,4.6,CA SAN DIEGO LINDBERGH FLD        GSN,72290
USW00023190,34.4258,-119.8425,2.7,CA SANTA BARBARA MUNI AP,72392
USW00023191,33.405,-118.4158,488.3,CA AVALON CATALINA AP,72292
USW00023192,35.3333,-116.0833,281,CA SILVER LAKE CAA AP,
USW00023194,35.0281,-110.7208,1489.3,AZ WINSLOW MUNI AP,72374
USW00023195,32.6667,-114.6,62.8,AZ YUMA WSO AP,72280
USW00023196,32.5833,-116.9833,159.4,CA CHULA VISTA BROWN FLD NAAS,
USW00023199,32.8167,-115.6833,-12.8,CA EL CENTRO NAF,72281
USW00023202,38.2667,-121.9333,18,CA TRAVIS AFB,74516
USW00023203,37.3833,-120.5667,60,CA CASTLE AFB,72481
USW00023206,38.5667,-121.3,39.9,CA SACRAMENTO MATHER AFB,
USW00023208,38.6667,-121.4,25,CA SACRAMENTO MCCLELLAN AFB,
USW00023211,38.0667,-122.5167,4,CA HAMILTON AF BASE,
USW00023213,38.5039,-122.8103,34.7,CA SANTA ROSA SONOMA CO AP,
USW00023225,39.2775,-120.7103,1608.1,CA BLUE CANYON AP,
USW00023226,39.3167,-120.3333,2194,CA DONNER SUMMIT CAA,
USW00023230,37.7214,-122.2208,1.8,CA OAKLAND METRO INTL AP,72493
USW00023232,38.5069,-121.495,4.6,CA SACRAMENTO EXECUTIVE AP        GSN,72483
USW00023233,36.6636,-121.6081,22.6,CA SALINAS MUNICIPAL AP,72593
USW00023234,37.6197,-122.3647,2.4,CA SAN FRANCISCO INTL AP,72494
USW00023237,37.8892,-121.2258,7.9,CA STOCKTON METRO AP,72492
USW00023238,39.1,-122.15,39,CA WILLIAMS CAA AP,
USW00023239,37.7333,-122.3167,4.9,CA ALAMEDA NAS,74506
USW00023240,37.4,-121.1333,50,CA CROWS LANDING,
USW00023241,36.8833,-121.4,71.9,CA HOLLISTER NAAS,
USW00023244,37.4058,-122.0481,11.9,CA MOFFETT FEDERAL AIRFIELD,74509
USW00023245,36.6,-121.8667,50,CA MONTEREY NAF,72491
USW00023246,38.4167,-122.75,42.1,CA SANTA ROSA NAAS,
USW00023248,37.6,-121.3,59.1,CA VERNALIS NAAS,
USW00023249,36.9333,-121.7833,44.2,CA WATSONVILLE NAAS,
USW00023254,37.9917,-122.055,5.5,CA CONCORD BUCHANAN FLD,72495
USW00023257,37.2847,-120.5128,46.3,CA MERCED MUNI AP,
USW00023258,37.6242,-120.9506,22.3,CA MODESTO CITY CO AP,
USW00023259,36.5881,-121.8453,50.3,CA MONTEREY PENINSUL AP,
USW00023271,38.5556,-121.4169,11.6,CA SACRAMENTO 5 ESE,
USW00023272,37.7706,-122.4269,45.7,CA SAN FRANCISCO DWTN,
USW00023273,34.8994,-120.4486,73.8,CA SANTA MARIA PUBLIC AP,72394
USW00023275,39.1258,-123.2008,183.2,CA UKIAH MUNI AP,
USW00023277,36.9358,-121.7886,48.8,CA WATSONVILLE MUNI AP,
USW00023285,37.6928,-121.8144,119.8,CA LIVERMORE MUNI AP,
USW00023293,37.3592,-121.9239,15.5,CA SAN JOSE,
USW00023801,31.79,-86.0003,143.9,AL TROY 2 W                           CRN,
USW00023802,31.8814,-87.7367,106.7,AL THOMASVILLE 2 S                    CRN,
USW00023803,34.8222,-89.4347,147.5,MS HOLLY SPRINGS 4 N                  CRN,74770
USW00023904,35.82,-91.7811,138.7,AR BATESVILLE 8 WNW                   CRN,72245
USW00023906,28.3044,-96.8231,4.6,TX PORT ARANSAS 32 NNE                CRN,74747
USW00023907,30.6222,-98.0847,414.8,TX AUSTIN 33 NW                       CRN,74744
USW00023908,37.4278,-94.5828,290.2,MO JOPLIN 24 N                        CRN,72559
USW00023909,37.6344,-91.7225,365.2,MO SALEM 10 W                         CRN,72560
USW00024006,44.15,-103.1,979.9,SD ELLSWORTH AFB,
USW00024011,46.7708,-100.7603,505.4,ND BISMARCK                       GSN,72764
USW00024012,46.7994,-102.7972,786.4,ND THEODORE ROOSEVELT AP,72763
USW00024013,48.2553,-101.2733,507.5,ND MINOT INTL AP,
USW00024015,40.1667,-103.2167,1421.3,CO AKRON WASHINGTON CO AP,
USW00024017,42.8375,-103.0953,1011.3,NE CHADRON MUNI AP,
USW00024018,41.1519,-104.8061,1867.8,WY CHEYENNE                           HCN,72564
USW00024019,42.75,-105.3667,1487.1,WY DOUGLAS CAA AP,
USW00024020,40.5233,-101.0344,928.1,NE HAYES CENTER 1NW,
USW00024021,42.8153,-108.7261,1704.4,WY LANDER HUNT FLD AP             GSN,72576
USW00024022,41.3119,-105.6747,2214.7,WY LARAMIE RGNL AP                    HCN,
USW00024023,41.1214,-100.6694,846.7,NE NORTH PLATTE RGNL AP           GSN,72562
USW00024024,44.0511,-101.6011,672.4,SD PHILIP AP,
USW00024025,44.3814,-100.2856,531,SD PIERRE RGNL AP                     HCN,72656
USW00024027,41.5944,-109.0528,2054.7,WY ROCK SPRINGS AP                    HCN,72574
USW00024028,41.8706,-103.5931,1202.4,NE SCOTTSBLUFF HEILIG AP,72566
USW00024029,44.7694,-106.9689,1202.4,WY SHERIDAN CO AP                 GSN,72666
USW00024030,41.1014,-102.9847,1313.4,NE SIDNEY MUNI AP,72561
USW00024031,41.8,-107.05,2000.1,WY SINCLAIR CAA AP,
USW00024032,42.8783,-100.55,789.4,NE VALENTINE MILLER FLD,72567
USW00024033,45.8069,-108.5422,1091.5,MT BILLINGS LOGAN INTL AP,72677
USW00024035,48.5667,-109.6667,759.9,MT HAVRE WB CITY,
USW00024036,47.0492,-109.4578,1263.4,MT LEWISTOWN MUNI AP,
USW00024037,46.4267,-105.8825,799.8,MT MILES CITY F WILEY FLD             HCN,74230
USW00024040,46.1333,-107.5333,836.1,MT CUSTER,
USW00024044,42.0572,-102.8,1196,NE ALLIANCE MUNI AP,
USW00024046,40.4953,-107.5211,1885.5,CO CRAIG MOFFAT CO AP,72570
USW00024048,44.5169,-108.0822,1198.8,WY GREYBULL S BIG HORN AP,
USW00024057,41.8056,-107.1997,2053.1,WY RAWLINS MUNI AP,72669
USW00024061,43.0661,-108.4767,1697.1,WY RIVERTON,
USW00024062,43.9658,-107.9508,1271.6,WY WORLAND,
USW00024088,44.2169,-104.9292,1318.3,WY MOORCROFT 3S,
USW00024089,42.8975,-106.4636,1627,WY CASPER NATRONA CO AP,72569
USW00024090,44.0433,-103.0536,963.2,SD RAPID CITY RGNL AP,72662
USW00024091,40.51,-101.62,996.1,NE IMPERIAL MUNI AP,
USW00024101,41.1167,-111.9667,1459.1,UT OGDEN HILL AFB,
USW00024103,40.1833,-112.9333,1328.9,UT DUGWAY PROVING GROUNDS,74003
USW00024106,43.05,-115.8667,912,ID MTN HOME AFB,
USW00024110,47.2078,-119.3192,364.5,WA MOSES LAKE GRANT CO AP,
USW00024111,40.7333,-114.0333,1293,UT WENDOVER DARBY AFB,
USW00024112,47.5167,-111.1833,1058.3,MT MALMSTROM AFB,
USW00024114,47.6333,-117.65,743.1,WA FAIRCHILD AFB,
USW00024118,41.4,-110.4167,2140.9,WY FT BRIDGER AP,
USW00024119,40.6117,-116.8917,1373.1,NV BATTLE MOUNTAIN 4SE                HCN,
USW00024120,40.9139,-111.3983,1691.6,UT COALVILLE,
USW00024121,40.8289,-115.7886,1533.1,NV ELKO RGNL AP                       HCN,
USW00024122,40.35,-112.05,1513.9,UT FAIRFIELD CAA AP,
USW00024125,41.35,-113.9,1362.2,UT LUCIN,
USW00024126,41.1961,-112.0114,1362.5,UT OGDEN HINKLEY AP,72575
USW00024127,40.7781,-111.9694,1287.8,UT SALT LAKE CITY INTL AP,72572
USW00024128,40.9017,-117.8081,1309.4,NV WINNEMUCCA MUNI AP             GSN HCN,72583
USW00024130,44.8428,-117.8086,1024.4,OR BAKER CITY MUNI AP                 HCN,
USW00024131,43.5667,-116.2406,857.7,ID BOISE AIR TERMINAL             GSN,72681
USW00024132,45.7881,-111.1608,1349.3,MT BOZEMAN GALLATIN FLD,
USW00024133,42.5417,-113.7661,1262.5,ID BURLEY MUNI AP,
USW00024134,43.5833,-119.05,1262.2,OR BURNS WSO CITY,
USW00024135,45.9647,-112.5006,1678.2,MT BUTTE BERT MOONEY AP,72774
USW00024136,47.7667,-116.8167,703.2,ID COEUR D ALENE AP,
USW00024137,48.6033,-112.3753,1169.8,MT CUT BANK MUNI AP                   HCN,72769
USW00024138,45.2575,-112.5545,1585,MT DILLON AP,72770
USW00024139,46.6383,-113.1761,1219.2,MT DRUMMOND AVIATION,
USW00024140,44.1667,-112.2167,1563.9,ID DUBOIS,
USW00024141,47.3078,-119.5153,381.6,WA EPHRATA MUNI AP,72790
USW00024142,42.9167,-114.7167,1088.1,ID GOODING 2 S,
USW00024143,47.4733,-111.3822,1116.8,MT GREAT FALLS INTL AP                HCN,72775
USW00024144,46.6056,-111.9636,1166.8,MT HELENA RGNL AP                 GSN HCN,72772
USW00024145,43.5164,-112.0672,1441.4,ID IDAHO FALLS FANNING FLD,
USW00024147,46.8167,-117.8833,452,WA LA CROSSE WB CITY,
USW00024148,45.2833,-118.0167,825.1,OR LA GRANDE 6 SE,
USW00024149,46.3747,-117.0156,437.7,ID LEWISTON NEZ PERCE CO AP           HCN,72783
USW00024150,45.6983,-110.4408,1415.2,MT LIVINGSTON MISSION FLD,
USW00024151,42.1492,-112.2872,1362.5,ID MALAD CITY                         HCN,
USW00024152,45.5114,-118.4247,1134.8,OR MEACHAM,
USW00024153,46.9208,-114.0925,972.9,MT MISSOULA INTL AP,72773
USW00024154,47.4569,-115.645,1837.3,ID MULLAN PASS VOR/DME,
USW00024155,45.6906,-118.8528,461.8,OR PENDLETON                      GSN,72688
USW00024156,42.9203,-112.5711,1364.9,ID POCATELLO RGNL AP              GSN,72578
USW00024157,47.6217,-117.5281,717.2,WA SPOKANE INTL AP                    HCN,72785
USW00024158,42.0167,-113.25,1609.3,ID STREVELL,
USW00024159,47.1928,-114.8903,826,MT SUPERIOR,
USW00024160,46.0947,-118.2869,355.4,WA WALLA WALLA RGNL AP                HCN,
USW00024161,45.8667,-111.9667,1303.9,MT WHITEHALL 7 E,
USW00024162,44.0206,-117.0128,667.5,OR ONTARIO MUNI AP,
USW00024163,46.2667,-119.1167,124.1,WA PASCO TRI CITIES AP,
USW00024164,42.5844,-110.1075,2124.5,WY BIG PINEY MARBLETON AP,72671
USW00024172,40.0681,-118.5692,1189.3,NV LOVELOCK DERBY FLD,
USW00024175,40.7667,-111.8833,1311.9,UT SALT LAKE CITY,
USW00024193,40.7206,-114.0358,1291.4,UT WENDOVER AP AWOS                   HCN,72581
USW00024199,44.7667,-117.8333,1050,OR BAKER KBKR,
USW00024201,47.0833,-122.5833,89.9,WA GRAY AAF,74207
USW00024203,47.9167,-122.2833,181.7,WA EVERETT PAINE AFB,
USW00024207,47.15,-122.4833,88.1,WA TACOMA MCCHORD AFB,74206
USW00024213,40.8097,-124.1603,6.1,CA EUREKA WFO WOODLEY ISLAND      GSN HCN,72594
USW00024214,41.7333,-122.55,767.8,CA MONTAGUE YREKA MUNI AP,
USW00024215,41.3325,-122.3328,1077.5,CA MT SHASTA,
USW00024216,40.1519,-122.2536,107.6,CA RED BLUFF MUNI AP,72591
USW00024217,48.7939,-122.5372,45.4,WA BELLINGHAM INTL AP,
USW00024219,45.6194,-121.1661,71.6,WA THE DALLES MUNI AP,
USW00024220,47.0339,-120.5303,538.3,WA ELLENSBURG BOWERS FLD,
USW00024221,44.1278,-123.2206,107.6,OR EUGENE MAHLON SWEET AP,72693
USW00024222,47.9078,-122.2803,184.7,WA EVERETT SNOHOMISH AP,
USW00024223,46.1333,-122.9,4.9,WA KELSO WB AP,
USW00024224,42.1667,-121.7333,1244.8,OR KLAMATH FALLS AP,
USW00024225,42.3811,-122.8722,395.3,OR MEDFORD ROGUE VLY AP,72597
USW00024226,46.3,-124.0833,64,WA NORTH HEAD WB,
USW00024227,46.9733,-122.9033,57.3,WA OLYMPIA AP                     GSN,72792
USW00024228,48.1333,-123.4,4.9,WA PORT ANGELES WB AP,
USW00024229,45.5908,-122.6003,5.8,OR PORTLAND INTL AP,72698
USW00024230,44.2558,-121.1392,927.5,OR REDMOND ROBERTS FLD,72692
USW00024231,43.2389,-123.3547,160,OR ROSEBURG RGNL AP,
USW00024232,44.905,-123.0011,62.5,OR SALEM MCNARY FLD,72694
USW00024233,47.4444,-122.3139,112.8,WA SEATTLE TACOMA INTL AP,72793
USW00024234,47.5303,-122.3008,6.1,WA SEATTLE BOEING FLD,
USW00024235,42.6003,-123.3642,1168,OR SEXTON SUMMIT,
USW00024236,42.0833,-122.5667,1367,OR SISKIYOU SUMMIT,
USW00024237,47.2767,-121.3372,1206.7,WA STAMPEDE PASS,
USW00024238,45.7167,-121.8333,96.9,WA STEVENSON WB CITY,
USW00024239,47.25,-122.4333,82,WA TACOMA CITY HALL,
USW00024240,48.3833,-124.7333,35.1,WA TATOOSH ISLAND WB,
USW00024241,46.4833,-122.8167,115.5,WA TOLEDO FAA AP,
USW00024242,45.5511,-122.4089,8.8,OR PORTLAND TROUTDALE AP,
USW00024243,46.5683,-120.5428,324.3,WA YAKIMA AIR TERMINAL,72781
USW00024244,47.6833,-122.2667,14.9,WA SEATTLE NAS,
USW00024245,40.9667,-124.1,63.1,CA ARCATA NAAS,
USW00024246,46.1667,-123.8833,4,OR ASTORIA NAS,
USW00024247,48.2,-122.1833,41.1,WA ARLINGTON NAAS,
USW00024249,42.1333,-121.75,1247.9,OR KLAMATH FALLS,
USW00024250,42.15,-120.4,1444.1,OR LAKEVIEW NAS,
USW00024251,43.4167,-124.2333,15.8,OR NORTH BEND NAAF,
USW00024252,47.95,-124.5333,61.9,WA QUILLAYUTE NAAS,
USW00024253,47.2333,-123.1333,91.1,WA SHELTON NAAS,
USW00024254,45.4167,-123.8,11.9,OR TILLAMOOK NAS,
USW00024255,48.35,-122.6667,14.3,WA WHIDBEY ISLAND NAS,69023
USW00024257,40.5175,-122.2986,151.5,CA REDDING MUNI AP                    HCN,72592
USW00024259,41.7806,-122.4717,803.1,CA MONTAGUE SISKIYOU CO AP,
USW00024274,45.5333,-122.6667,9.1,OR PORTLAND RFC CITY,
USW00024281,47.65,-122.3,5.8,WA SEATTLE URBAN SITE                 HCN,
USW00024283,40.9781,-124.1086,61,CA ARCATA EUREKA AP,
USW00024284,43.4133,-124.2436,5.2,OR NORTH BEND RGNL AP                 HCN,
USW00024285,44.6431,-124.0556,37.2,OR NEWPORT                            HCN,
USW00024286,41.7803,-124.2367,17.1,CA CRESCENT CITY MCNAMARA AP,
USW00025308,55.0389,-131.5786,33.2,AK ANNETTE ISLAND AP              GSN,70398
USW00025309,58.3567,-134.5639,4.9,AK JUNEAU INTL AP,70381
USW00025322,58.4111,-135.7089,12.2,AK GUSTAVUS,70367
USW00025323,59.2433,-135.5094,4.6,AK HAINES AP,
USW00025325,55.3567,-131.7117,23.2,AK KETCHIKAN INTL AP,70395
USW00025329,56.8056,-132.9372,32.6,AK PETERSBURG 1,70386
USW00025331,61.5961,-149.0917,70.1,AK PALMER MUNI AP,70274
USW00025333,57.0481,-135.3647,4.3,AK SITKA AIRPORT,70371
USW00025335,59.4556,-135.3239,6.1,AK SKAGWAY AP,70362
USW00025339,59.5119,-139.6711,10.1,AK YAKUTAT STATE AP               GSN,70361
USW00025367,55.58,-133.075,3.7,AK KLAWOCK AP,
USW00025379,57.0575,-135.3267,23.8,AK SITKA 1 NE                         CRN,70373
USW00025380,58.4292,-135.69,6.1,AK GUSTAVUS 2 NE                      CRN,70360
USW00025381,55.0456,-131.5878,32,AK METLAKATLA 6 S                     CRN,70359
USW00025402,59.4667,-146.3167,14,AK MIDDLETON ISLAND AUTO,70343
USW00025403,59.45,-146.3167,36.9,AK MIDDLETON ISLAND,70343
USW00025501,57.7511,-152.4856,24.4,AK KODIAK AP,70350
USW00025503,58.6794,-156.6294,19.2,AK KING SALMON                    GSN,70326
USW00025506,59.7494,-154.9089,43.6,AK ILIAMNA AP,70340
USW00025507,59.6419,-151.4908,19.5,AK HOMER AP                       GSN,70341
USW00025508,56.95,-158.6167,28,AK PORT HEIDEN,70333
USW00025515,53.9667,-166.85,395.9,AK DRIFTWOOD BAY,
USW00025516,59.4433,-151.7017,8.8,AK SELDOVIA AP,
USW00025522,58.2078,-155.9225,201.5,AK KING SALMON 42 SE                  CRN,70348
USW00025602,53.3833,-167.9,39.6,AK UMNAK,
USW00025603,55.2,-162.7167,29.9,AK THORNBROUGH,
USW00025623,58.65,-162.0667,71.9,AK CAPE NEWENHAM AFS,70305
USW00025624,55.2208,-162.7325,23.8,AK COLD BAY AP                    GSN,70316
USW00025625,56,-160.5167,321,AK PORT MOLLER,
USW00025626,52.9167,-168.7833,214.9,AK NIKOLSKI,70482
USW00025628,56.6,-169.565,38.1,AK ST GEORGE ISLAND AP,
USW00025630,55.3472,-160.4661,73.2,AK SAND POINT 1 ENE                   CRN,70315
USW00025704,51.8833,-176.65,5.2,AK ADAK,70454
USW00025708,52.2167,-174.2,11,AK ATKA ISLAND,
USW00025709,51.75,-178.0333,45.1,AK ASI TANAGA ISLAND NS,
USW00025711,57.1575,-170.2119,6.1,AK ST. PAUL 4 NE                      CRN,70309
USW00025713,57.1553,-170.2222,10.7,AK ST PAUL ISLAND AP              GSN,70308
USW00026401,61.25,-149.8,58.5,AK ELMENDORF AFB,70272
USW00026403,64.85,-147.5833,148.1,AK LADD AAB,
USW00026407,64.6833,-147.0833,173.1,AK EIELSON FLD,70265
USW00026409,61.2169,-149.855,42.1,AK ANCHORAGE MERRILL FLD,
USW00026410,60.4889,-145.4511,9.4,AK CORDOVA M K SMITH AP,70296
USW00026411,64.8039,-147.8761,131.7,AK FAIRBANKS INTL AP              GSN,70261
USW00026412,62.9614,-141.9292,522.1,AK NORTHWAY AP,70291
USW00026413,66.5706,-145.2342,132,AK FT YUKON,70194
USW00026414,63.3333,-149.1333,734.9,AK SUMMIT WSO AP,70264
USW00026415,63.9944,-145.7214,389.2,AK BIG DELTA AP,70267
USW00026422,64.7767,-141.1483,276.8,AK EAGLE AP,
USW00026425,62.1592,-145.4589,476.1,AK GULKANA AP,70271
USW00026435,64.55,-149.0717,109.7,AK NENANA MUNI AP,70260
USW00026436,60.7667,-147.8,11.9,AK NORTH DUTCH ISLAND CAA,
USW00026438,60.1283,-149.4167,6.7,AK SEWARD AP,70277
USW00026439,61.8,-147.6833,694.9,AK SHEEP MTN CAA AP,
USW00026440,63.3783,-143.3483,469.7,AK TANACROSS,
USW00026442,61.1303,-146.3517,29,AK VALDEZ WSO,70275
USW00026445,60.0833,-142.5,8.2,AK YAKATAGA AP,70298
USW00026451,61.1689,-150.0278,36.6,AK ANCHORAGE INTL AP,70273
USW00026452,61.25,-149.8,63.1,AK ELMENDORF 2 AFB,
USW00026453,61.2167,-149.8667,25.9,AK ANCHORAGE PARK STRIP,
USW00026458,63.85,-144.9833,4.9,AK GERSTLE RIVER,
USW00026491,61.1781,-149.9664,27.4,AK ANCHORAGE LAKE HOOD AP,
USW00026492,60.785,-148.8389,31.4,AK PORTAGE GLACIER V C,
USW00026494,64.9736,-147.51,347.5,AK FAIRBANKS 11 NE                    CRN,70263
USW00026501,64.7367,-156.9344,46.6,AK GALENA AP,70222
USW00026502,64.3267,-158.7417,55.2,AK KALTAG AP,
USW00026508,69.3694,-152.14,81.1,AK UMIAT,70162
USW00026509,64.7167,-156.9,38.1,AK GALENA AP,
USW00026510,62.9575,-155.6103,101.5,AK MCGRATH AP                     GSN,70231
USW00026513,66.9,-157.0333,42.1,AK SHUNGNAK CAA,
USW00026514,61.9772,-151.2169,45.7,AK SKWENTNA,
USW00026516,61.5833,-159.5333,26.2,AK ANIAK AP,70232
USW00026517,66.9,-151.7167,260.9,AK BETTLES CAA,
USW00026519,62.5167,-153.8833,458.1,AK FAREWELL FAA AP,70248
USW00026523,60.5797,-151.2392,27.7,AK KENAI MUNI AP,70259
USW00026528,62.32,-150.095,106.7,AK TALKEETNA AP                   GSN,70251
USW00026529,65.1744,-152.1069,69.2,AK TANANA CALHOUN MEM AP,70178
USW00026533,66.9161,-151.5089,195.7,AK BETTLES AP,70174
USW00026534,61.1,-155.5833,484,AK SPARREVOHN MTN AFS,70235
USW00026535,66,-153.7,388.9,AK INDIAN MTN AFS,70173
USW00026536,62.9,-155.9667,293.8,AK TATALINA,
USW00026537,69.3667,-152.1333,103.9,AK UMIAT AFS,
USW00026562,60.195,-154.3197,97.8,AK PORT ALSWORTH 1 SW                 CRN,70349
USW00026563,60.7236,-150.4483,86,AK KENAI 29 ENE                       CRN,70342
USW00026564,68.485,-155.7505,581.9,AK IVOTUK 1 NNE                       CRN,70075
USW00026565,70.1617,-148.4644,9.1,AK DEADHORSE 3 S                      CRN,70080
USW00026615,60.785,-161.8292,31.1,AK BETHEL AP                      GSN,70219
USW00026616,66.8667,-162.6333,9.1,AK KOTZEBUE RALPH WEIN AP         GSN,70133
USW00026617,64.5111,-165.44,4,AK NOME MUNI AP                   GSN,70200
USW00026618,65.6239,-168.0992,7.6,AK WALES,70116
USW00026620,64.7,-162.05,6.1,AK MOSES POINT FAA AP,
USW00026627,63.8833,-160.8,5.5,AK UNALAKLEET FLD,70207
USW00026631,68.8667,-166.1333,15.8,AK CAPE LISBURNE AFS,70104
USW00026632,63.3167,-168.9667,9.1,AK NORTHEAST CAPE,
USW00026633,61.7833,-166.0333,123.1,AK CAPE ROMANZOF AFS,70212
USW00026634,65.5667,-167.9167,82,AK TIN CITY,70117
USW00026642,67.7317,-164.5483,3,AK KIVALINA AP,
USW00026643,66.0689,-162.7639,6.4,AK DEERING AP,
USW00026655,68.0278,-162.9211,287.1,AK RED DOG MINE 3 SSW                 CRN,70122
USW00026703,63.7833,-171.75,8.2,AK GAMBELL,
USW00027401,70.1333,-143.6333,11.9,AK BARTER ISLAND WSO AP           GSN,70086
USW00027406,70.1917,-148.4772,18.6,AK DEADHORSE AP,
USW00027502,71.2833,-156.7814,9.4,AK BARROW POST ROGERS AP          GSN,70026
USW00027503,70.6392,-159.995,9.1,AK WAINWRIGHT AP,70030
USW00027515,70.2117,-151.0017,17.4,AK NUIQSUT AP,
USW00027516,71.3214,-156.6111,4.6,AK BARROW 4 ENE                       CRN,70025
USW00045702,51.3833,179.25,71.9,AK AMCHITKA ISLAND,
USW00045708,52.7167,174.1,39.9,AK SHEMYA ISLAND,
USW00045709,52.8,173.1667,28,AK ATTU NS,70409
USW00045714,52.7167,174.1,34.1,AK SHEMYA ISLAND,
USW00045715,52.7167,174.1,37.2,AK SHEMYA USAF BASE,70414
USW00053002,32.8547,-104.4569,1067.1,NM ARTESIA 2 WNW                      CRN,
USW00053003,35.1189,-107.8303,1963.8,NM GRANTS 2 S                         CRN,
USW00053004,37.6011,-109.9886,1959.3,UT BLUFF 32 NW                        CRN,
USW00053005,38.8111,-106.1219,2418,CO BUENA VISTA 2 SSE                  CRN,
USW00053006,31.6922,-111.4481,1005.8,AZ AMADO 23 W                         CRN,
USW00053007,39.0878,-105.0878,2399.4,CO COLORADO SPRINGS 23 NW             CRN,
USW00053008,34.5119,-103.1744,1315.5,NM CLOVIS 7 N                         CRN,
USW00053009,35.0461,-108.3636,2183.6,NM RAMAH 9 SE                         CRN,
USW00053010,38.1403,-109.6164,1531.6,UT MONTICELLO 24 NW                   CRN,
USW00053011,36.2919,-109.2181,2155.2,AZ TSAILE 1 SSW                       CRN,
USW00053012,37.2667,-109.6075,1338.1,UT BLANDING 26 SSW                    CRN,
USW00053013,37.4572,-113.2247,1553.3,UT CEDAR CITY 18 SSE                  CRN,
USW00053014,37.2508,-109.9878,1939.7,UT MEXICAN HAT 10 NW                  CRN,
USW00053015,33.0875,-104.1617,1082.6,NM HAGERMAN 10 ESE                    CRN,
USW00053016,34.1372,-104.9303,1534.4,NM VAUGHN 36 SSE                      CRN,
USW00053017,36.75,-107.2189,2140.9,NM AZTEC 43 E                         CRN,
USW00053019,33.8208,-109.9831,1576.7,AZ WHITERIVER A 1 SW                  CRN,
USW00053022,33.8075,-103.8431,1314.6,NM ELIDA 14 SW                        CRN,
USW00053023,38.3131,-109.8539,1912.6,UT SPANISH VALLEY 25 SW               CRN,
USW00053024,35.6633,-105.1433,2087,NM LAS VEGAS 6 NE                     CRN,
USW00053025,31.8881,-108.2019,1417.9,NM HACHITA 7 ESE                      CRN,
USW00053026,32.5122,-105.3358,1663,NM PINON 8 SSE                        CRN,
USW00053119,36.3189,-119.6289,75.9,CA HANFORD MUNI AP,
USW00053120,33.0375,-116.9158,424.6,CA RAMONA AP,
USW00053121,33.2194,-117.3494,8.5,CA OCEANSIDE MUNI AP,
USW00053123,36.2117,-115.1958,671.5,NV LAS VEGAS AIR TERMINAL,
USW00053131,32.2394,-111.1697,833,AZ TUCSON 11 W                        CRN,72275
USW00053132,31.5908,-110.5086,1466.4,AZ ELGIN 5 S                          CRN,72276
USW00053136,36.6239,-116.0225,1001,NV MERCURY 3 SSW                      CRN,72392
USW00053138,39.0117,-114.2089,2016.9,NV BAKER 5 W                          CRN,72388
USW00053139,36.6019,-117.145,25.6,CA STOVEPIPE WELLS 1 SW               CRN,74613
USW00053144,34.9883,-117.8647,695.9,CA EDWARDS AFB NORTH AUX FLD,
USW00053145,37.6172,-116.2642,1755.6,NV TONOPAH TEST RNG #74 NELLIS AF,
USW00053146,31.6072,-110.4281,1453.3,AZ FT HUACHUCA PIONEER AIRFIELD,
USW00053149,38.3028,-111.2936,1891,UT TORREY 7 E                         CRN,72571
USW00053150,37.7592,-119.8208,2017.8,CA YOSEMITE VILLAGE 12 W              CRN,74503
USW00053151,33.4392,-117.1903,347.5,CA FALLBROOK 5 NE                     CRN,74502
USW00053152,34.4142,-119.8797,5.5,CA SANTA BARBARA 11 W                 CRN,74505
USW00053154,32.835,-114.1883,189,AZ YUMA 27 ENE                        CRN,72279
USW00053155,35.7553,-112.3375,1825.8,AZ WILLIAMS 35 NNW                    CRN,72277
USW00053156,33.3472,-112.0833,427.9,AZ PHOENIX 7 S                        CRN,
USW00053159,35.5036,-111.3444,1465.2,AZ CAMERON 25 SSE                     CRN,
USW00053160,34.6136,-111.8431,1046.7,AZ CAMP VERDE 3 N                     CRN,
USW00053162,32.9917,-111.5325,434.3,AZ COOLIDGE 5 W                       CRN,
USW00053163,33.9794,-107.1872,3196.1,NM SOCORRO 17 WSW                     CRN,
USW00053164,36.8636,-111.6011,991.8,AZ PAGE 9 WSW                         CRN,
USW00053165,39.3872,-112.5094,1451.2,UT DELTA 4 NE                         CRN,
USW00053166,37.2158,-113.3794,1041.5,UT ST. GEORGE 15 NE                   CRN,
USW00053167,40.5467,-111.4136,1752,UT MIDWAY 3 NE                        CRN,
USW00053168,31.9497,-112.8014,506.3,AZ AJO 29 S                           CRN,
USW00053169,36.6822,-110.5425,2217.1,AZ KAYENTA 16 WSW                     CRN,
USW00053170,34.3983,-110.5656,2019.3,AZ HEBER 3 SE                         CRN,
USW00053171,38.5942,-113.7511,1601.7,UT MILFORD 42 WNW                     CRN,
USW00053172,34.2528,-114.1339,126.8,AZ LAKE HAVASU CITY 19 SE             CRN,
USW00053173,36.0347,-107.9044,1965.7,NM NAGEEZI 18 SSW                     CRN,
USW00053174,39.6081,-110.7508,1778.5,UT PRICE 3 E                          CRN,
USW00053176,32.965,-112.6697,237.7,AZ GILA BEND 3 ENE                    CRN,
USW00053180,35.2572,-113.9339,1043.9,AZ KINGMAN 8 NE                       CRN,
USW00053181,32.8564,-109.635,968,AZ SAFFORD 5 NNE                      CRN,
USW00053182,36.5683,-101.6097,1000.4,OK GOODWELL 2 SE                      CRN,74636
USW00053183,36.8553,-112.453,1568.8,AZ FREDONIA 7 SSE                     CRN,
USW00053184,36.0936,-114.045,895.5,AZ MEADVIEW 7 N                       CRN,
USW00053185,38.2731,-112.3769,3088.2,UT BEAVER 15 E                        CRN,
USW00053802,39.4781,-88.2803,219.8,IL MATTOON COLES CO AP,
USW00053819,33.3633,-84.5658,261.5,GA ATLANTA,72215
USW00053820,31.4156,-87.0442,78.6,AL EVERGREEN MIDDLETON FLD,
USW00053838,34.2719,-83.8303,388.6,GA GAINESVILLE GILMER AP,
USW00053841,38.1847,-84.9033,245.1,KY FRANKFORT CAPITAL CITY AP,
USW00053842,39.825,-86.2958,250.9,IN INDIANAPOLIS EAGLE CREEK AP,
USW00053843,31.3089,-86.3939,94.5,AL ANDALUSIA OPP AP,
USW00053844,39.7556,-82.6572,264.9,OH LANCASTER FAIRFIELD AP,
USW00053846,30.8,-81.5,15.2,GA KINGS BAY NAVY BASE,
USW00053847,30.7044,-87.0231,54.3,FL WHITING FIELD NAS SOUTH,
USW00053848,30.5069,-86.9597,31.1,FL CHACTAW NOLF MILTON,
USW00053849,32.8,-88.8333,164.6,MS MERIDAN JOE WILLIAMS NOLF,
USW00053850,34.6719,-82.8864,271.6,SC CLEMSON OCONEE CO AP,
USW00053852,34.6525,-86.9453,180.4,AL DECATUR PRYOR FLD,
USW00053853,30.4,-86.4717,6.7,FL DESTIN FT WALTON AP,
USW00053854,33.4617,-80.8581,60,SC ORANGEBURG MUNI AP,
USW00053855,39.3644,-84.5247,193.2,OH HAMILTON BUTLER CO RGNL AP,
USW00053858,30.4636,-88.5319,5.5,MS PASCAGOULA LOTT INTL AP,
USW00053859,39.5936,-84.2264,293.2,OH DAYTON WRIGHT BROS AP,
USW00053860,30.3361,-81.5147,12.5,FL JACKSONVILLE CRAIG MUNI AP,74782
USW00053861,31.3558,-85.7511,74.4,AL FT RUCKER LOWE ARMY HELIPORT,
USW00053862,30.0719,-83.5736,13.7,FL PERRY FOLEY AP,
USW00053863,33.875,-84.3022,305.4,GA ATLANTA PEACHTREE AP,
USW00053864,33.1783,-86.7817,172.2,AL ALABASTER SHELBY CO AP,72230
USW00053865,30.3433,-89.8222,8.2,LA SLIDELL AP,72233
USW00053866,39.5781,-85.8033,245.1,IN SHELBYVILLE MUNI AP,
USW00053867,33.9706,-80.9958,64.6,SC COLUMBIA OWENS DWTN AP,
USW00053868,36.0236,-84.2375,277.4,TN OAK RIDGE ASOS,72427
USW00053869,35.9403,-89.8308,77.7,AR BLYTHEVILLE MUNI AP,
USW00053870,35.1967,-81.1558,242.9,NC GASTONIA MUNI AP,
USW00053871,34.9869,-81.0575,203.9,SC ROCK HILL YORK CO AP,
USW00053872,35.0169,-80.6206,207,NC MONROE AP,
USW00053873,34.1231,-84.8486,232.6,GA CARTERSVILLE AP,
USW00053874,34.2486,-82.1592,192.3,SC GREENWOOD CO AP,
USW00053875,35.0667,-85.3,208.8,TN CHATTANOOGA WB CITY,
USW00053877,35.4944,-82.6142,655.6,NC ASHEVILLE 8 SSW                    CRN,74696
USW00053878,35.4186,-82.5567,641,NC ASHEVILLE 13 S                     CRN,74697
USW00053879,38.9597,-94.3714,303.9,MO LEES SUMMIT MUNI AP,
USW00053901,36.8781,-91.9025,372.8,MO WEST PLAINS MUNI AP,
USW00053902,30.3567,-95.4139,74.7,TX CONROE MONTGOMERY CO AP,
USW00053903,30.7439,-95.5861,111.6,TX HUNTSVILLE MUNI AP,
USW00053904,38.9286,-90.4281,132.9,MO ST CHARLES CO AP,
USW00053905,32.5428,-93.745,54.6,LA SHREVEPORT DWTN AP,
USW00053907,32.6636,-97.0939,192,TX ARLINGTON MUNI AP,
USW00053908,36.0394,-95.9844,194.5,OK TULSA R L JONES JR AP,
USW00053909,32.9733,-97.3181,208.8,TX FT WORTH ALLIANCE AP,
USW00053910,30.0675,-95.5561,46.3,TX HOUSTON HOOKS MEM AP,
USW00053911,32.71,-96.2672,144.8,TX TERRELL MUNI AP,
USW00053912,32.0311,-96.3989,136.6,TX CORSICANA CAMPBELL FLD,
USW00053913,35.8517,-97.4142,325.5,OK GUTHRIE MUNI AP,
USW00053914,33.1803,-96.5903,176.8,TX MCKINNEY MUNI AP,
USW00053915,30.0375,-91.8839,7.3,LA NEW IBERIA ACADIANA RGNL AP,
USW00053916,39.8233,-93.5792,234.4,MO CHILLICOTHE AGRI-SCI,
USW00053917,30.0494,-90.0289,2.7,LA NEW ORLEANS LAKEFRONT AP,
USW00053918,36.3689,-92.4703,282.9,AR MOUNTAIN HOME BAXTER AP,
USW00053919,33.6361,-91.7556,88.4,AR MONTICELLO MUNI AP,
USW00053920,35.2578,-93.0947,122.8,AR RUSSELLVILLE MUNI AP,
USW00053921,34.5467,-93.5781,214,AR MOUNT IDA ASOS,
USW00053922,36.2833,-94.3,392.3,AR FAYETTEVILLE NW AR AP,
USW00053925,34.05,-94.4008,108.2,AR DE QUEEN SEVIER CO AP,
USW00053926,36.1181,-97.0914,271.3,OK STILLWATER 2 W                     CRN,74642
USW00053927,36.1347,-97.1083,270.7,OK STILLWATER 5 WNW                   CRN,74643
USW00053959,35.135,-90.2344,65.2,AR WEST MEMPHIS MUNI AP,
USW00053960,30.0917,-91.8731,10.7,LA LAFAYETTE 13 SE                    CRN,74760
USW00053961,32.8833,-92.1164,26.8,LA MONROE 26 N                        CRN,74761
USW00053968,31.7797,-95.7233,116.7,TX PALESTINE 6 WNW                    CRN,74749
USW00053974,39.1028,-96.6097,346.6,KS MANHATTAN 6 SSW                    CRN,72454
USW00053988,31.15,-92.9667,94.5,LA FT POLK FULLERTON LNDG STRIP,
USW00053989,39.2942,-96.9264,385.3,KS FT RILEY MULTIPLE PURPOSE RNG,
USW00054704,42.1908,-71.1736,15.2,MA NORWOOD MEM AP,
USW00054728,44.3675,-71.545,327.4,NH WHITEFIELD MT WASHINGTON AP,
USW00054733,42.5842,-70.9175,32.9,MA BEVERLY MUNI AP,
USW00054734,41.3714,-73.4828,139.3,CT DANBURY MUNI AP,
USW00054737,40.1203,-76.2944,122.8,PA LANCASTER AP,
USW00054740,43.3436,-72.5178,176.2,VT SPRINGFIELD HARTNESS AP,
USW00054742,44.42,-72.0194,213.4,VT SAINT JOHNSBURY,72614
USW00054743,40.8764,-74.2831,52.7,NJ CALDWELL ESSEX CO AP,
USW00054756,42.57,-72.2911,169.2,MA ORANGE MUNI AP,
USW00054757,42.1094,-77.9919,647.4,NY WELLSVILLE MUNI AP,
USW00054767,41.7419,-72.1836,75.3,CT WILLIMANTIC WINDHAM AP,
USW00054768,42.6958,-73.1708,199.3,MA NORTH ADAMS HARRIMAN AP,
USW00054769,41.9097,-70.7294,45.4,MA PLYMOUTH MUNI AP,
USW00054770,42.805,-72.0036,317,NH JAFFREY MUNI AP,
USW00054771,44.5344,-72.6144,223.1,VT MORRISVILLE STOWE STATE AP,
USW00054772,43.9906,-70.9475,135.6,ME FRYEBURG E SLOPES AP,
USW00054773,43.3497,-76.3847,144.8,NY FULTON OSWEGO CO AP,
USW00054777,41.8756,-71.0211,13.1,MA TAUNTON MUNI AP,
USW00054778,42.6425,-77.0564,275.2,NY PENN YAN AP,
USW00054779,41.0089,-74.7367,177.7,NJ ANDOVER AEROFLEX AP,
USW00054780,41.0731,-71.9233,2.1,NY MONTAUK AP,
USW00054781,42.8914,-73.2469,251.8,VT BENNINGTON MORSE ST AP,72516
USW00054782,40.2383,-75.5572,88.7,PA POTTSTOWN LIMERICK AP,
USW00054785,40.6239,-74.6694,32,NJ SOMERVILLE SOMERSET AP,
USW00054786,40.33,-75.1225,120.1,PA DOYLESTOWN AP,
USW00054787,40.7342,-73.4169,24.7,NY FARMINGDALE AP,
USW00054788,41.5097,-72.8278,31.4,CT MERIDEN MARKHAM MUNI AP,
USW00054789,41.1389,-75.3794,584,PA MT POCONO MOUNTAINS AP,
USW00054790,40.8217,-72.8689,25,NY SHIRLEY BROOKHAVEN AP,
USW00054791,43.2781,-70.9222,98.5,NH ROCHESTER SKYHAVEN AP,
USW00054792,41.0467,-78.4117,462.1,PA CLEARFIELD LAWRENCE AP,
USW00054793,41.2003,-74.6231,128.3,NJ SUSSEX AP,
USW00054794,43.1717,-70.9278,36.3,NH DURHAM 2 N                         CRN,72609
USW00054795,43.1092,-70.9483,19.2,NH DURHAM 2 SSW                       CRN,72610
USW00054796,41.4911,-71.5414,35.1,RI KINGSTON 1 NW                      CRN,72511
USW00054797,41.4783,-71.5417,32.3,RI KINGSTON 1 W                       CRN,72512
USW00054808,40.0528,-88.3728,213.4,IL CHAMPAIGN 9 SW                     CRN,72436
USW00054810,46.3344,-86.92,266.7,MI CHATHAM 1 SE                       CRN,72538
USW00054811,41.8431,-88.8514,262.4,IL SHABBONA 5 NNE                     CRN,72497
USW00054813,46.4167,-86.65,186.5,MI MUNSING LAKESHORE,
USW00054851,40.3667,-81.7828,341.4,OH COSHOCTON 8 NNE                    CRN,74571
USW00054854,44.9081,-84.7203,445.3,MI GAYLORD 9 SSW                      CRN,72541
USW00054902,41.5561,-93.2856,280.7,IA DES MOINES 17 E                    CRN,74448
USW00054903,44.0603,-90.1736,284.4,WI NECEDAH 5 WNW                      CRN,74358
USW00054932,46.1136,-92.9936,344.4,MN SANDSTONE 6 W                      CRN,72646
USW00054933,45.7114,-99.1297,596.5,SD ABERDEEN 35 WNW                    CRN,72667
USW00054936,45.55,-94.1333,310.9,MN ST CLOUD STATE CLG,
USW00054937,46.7703,-99.4778,585.2,ND JAMESTOWN 38 WSW                   CRN,72751
USW00056401,63.0294,-145.5003,813.5,AK GLENNALLEN 64 N                    CRN,70269
USW00063826,33.355,-81.3278,96.6,SC BLACKVILLE 3 W                     CRN,74784
USW00063828,31.3128,-84.4706,53.6,GA NEWTON 8 W                         CRN,74005
USW00063829,31.1922,-84.4464,47.5,GA NEWTON 11 SW                       CRN,72322
USW00063831,32.3378,-89.0703,114,MS NEWTON 5 ENE                       CRN,74771
USW00063838,38.0944,-84.7464,271.6,KY VERSAILLES 3 NNW                   CRN,72430
USW00063849,37.2503,-86.2325,240.8,KY BOWLING GREEN 21 NNE               CRN,72413
USW00063850,33.7836,-83.3897,225.9,GA WATKINSVILLE 5 SSE                 CRN,74006
USW00063855,36.0139,-85.1344,583.1,TN CROSSVILLE 7 NW                    CRN,72433
USW00063856,30.8078,-81.4597,7.6,GA BRUNSWICK 23 S                     CRN,72321
USW00063857,34.285,-85.9622,351.1,AL GADSDEN 19 N                       CRN,72238
USW00063858,32.4567,-87.2422,58.8,AL SELMA 13 WNW                       CRN,72236
USW00063862,34.5653,-85.6172,310.9,AL VALLEY HEAD 1 SSW                  CRN,
USW00063866,34.3336,-86.3156,189,AL GUNTERSVILLE 2 SW                  CRN,
USW00063867,34.1953,-86.7964,243.8,AL CULLMAN 3 ENE                      CRN,
USW00063868,34.6603,-87.3461,175.3,AL COURTLAND 2 WSW                    CRN,
USW00063869,30.5486,-87.8758,29,AL FAIRHOPE 3 NE                      CRN,72237
USW00063870,31.0425,-86.3117,95.7,AL FLORALA MUNI AP,
USW00063871,30.8458,-85.6014,25.9,FL BONIFAY TRI CO AP,
USW00063872,31.9514,-85.1289,86.9,AL WEEDON FLD AP,
USW00063873,31.35,-85.6667,96.6,AL OZARK FT RUCKER,
USW00063874,31.8456,-86.6108,137.5,AL GREENVILLE CRENSHAW AP,
USW00063890,30.3503,-81.8831,30.2,FL JACKSON WHITEHOUSE NOLF,
USW00063891,32.8517,-86.6114,178,AL CLANTON 2 NE                       CRN,
USW00063892,32.8369,-88.1375,32.6,AL GAINESVILLE 2 NE                   CRN,
USW00063893,32.7169,-87.6225,85.3,AL GREENSBORO 2 WNW                   CRN,
USW00063894,34.7728,-87.64,161.5,AL MUSCLE SHOALS 2 N                  CRN,
USW00063895,34.4536,-87.7103,219.5,AL RUSSELLVILLE 4 SSE                 CRN,
USW00063896,34.6942,-85.9997,193.9,AL SCOTTSBORO 2 NE                    CRN,
USW00063897,32.335,-86.9786,47.9,AL SELMA 6 SSE                        CRN,
USW00063898,38.8883,-86.5708,231.6,IN BEDFORD 5 WNW                      CRN,72431
USW00063899,31.145,-87.0517,51.8,AL BREWTON 3 NNE                      CRN,
USW00063903,31.1136,-92.9656,114,LA FT POLK - SELF STRIP,
USW00064756,41.7858,-73.7422,125.9,NY MILLBROOK 3 W                      CRN,74369
USW00064758,42.44,-76.2461,374.3,NY ITHACA 13 E                        CRN,72527
USW00064775,43.2339,-75.4117,158.2,NY ROME GRIFFISS AIRFIELD,
USW00064776,44.65,-73.4667,71.3,NY PLATTSBURGH INTL AP,
USW00073801,33.2125,-87.5914,45.7,AL NORTHPORT 2 S                      CRN,
USW00073802,31.9156,-86.3114,187.1,AL HIGHLAND HOME 2 S                  CRN,
USW00073803,33.5722,-86.0572,160,AL TALLADEGA 10 NNE                   CRN,
USW00073805,30.3489,-85.7881,17.4,FL NW FLORIDA BEACHES INTL AP,
USW00074401,39.8167,-94.85,291.7,MO ST JOSEPH WBO,
USW00079762,37.2,-93.3,403.6,MO SPRINGFIELD,
USW00092802,28.1878,-82.6258,12.5,FL TAMPA BAY EXEC AP,
USW00092805,26.25,-80.1083,6.4,FL POMPANO BEACH AIRPARK,
USW00092806,27.7628,-82.6261,2.4,FL ST PETERSBURG AP,
USW00092809,25.9989,-80.2411,2.7,FL HOLLYWOOD NORTH PERRY AP,
USW00092811,25.8064,-80.1336,0.3,FL MIAMI BEACH,
USW00092821,28.6158,-80.6928,0.9,FL TITUSVILLE 7 E                     CRN,74766
USW00092826,25.8997,-81.3183,1.2,FL EVERGLADES CITY 5 NE               CRN,72204
USW00092827,27.1525,-81.3689,45.7,FL SEBRING 23 SSE                     CRN,74765
USW00093002,39.75,-104.9833,1623.1,CO DENVER WSO CITY,
USW00093005,37.1431,-107.7597,2030,CO DURANGO LA PLATA CO AP,
USW00093009,39.2292,-106.3169,3027.3,CO LEADVILLE LAKE CO AP,
USW00093010,39.1894,-103.7158,1634.9,CO LIMON WSMO,74532
USW00093013,38.505,-107.8975,1755.3,CO MONTROSE RGNL AP,
USW00093026,31.4583,-109.6061,1251.2,AZ DOUGLAS BISBEE INL AP,72272
USW00093027,34.5183,-109.3792,1747.4,AZ ST JOHNS INDUSTRIAL AP,
USW00093032,39.7,-104.75,1695.9,CO DENVER NAS,
USW00093033,32.3336,-104.2581,985.1,NM CARLSBAD CAVERN CITY AP,
USW00093037,38.81,-104.6883,1884,CO COLORADO SPRINGS MUNI AP,72466
USW00093042,36.0167,-102.55,1216.2,TX DALHART MUNI AP,74736
USW00093044,35.0706,-108.8389,1923.6,NM ZUNI,
USW00093045,33.2367,-107.2681,1478.3,NM TRUTH OR CONSEQUENCE AP,72271
USW00093057,35.1664,-107.8992,1987.3,NM GRANTS MILAN MUNI AP,
USW00093058,38.29,-104.4983,1438.7,CO PUEBLO MEM AP,72464
USW00093063,32.6333,-108.1667,1638.9,NM SILVER CITY WB AP,
USW00093065,38.9667,-104.8167,2003.1,CO COLORADO SPRINGS USAF ACADEMY,74531
USW00093067,39.5703,-104.8489,1793.1,CO DENVER CENTENNIAL AP,
USW00093069,37.3031,-108.6275,1802.6,CO CORTEZ MONTEZUMA CO AP,
USW00093073,39.2231,-106.8683,2353.1,CO ASPEN PITKIN CO AP,
USW00093075,38.755,-109.7542,1390.2,UT MOAB CANYONLAND AP,
USW00093084,32.8547,-109.6353,968,AZ SAFFORD MUNI AP,
USW00093101,33.6667,-117.7333,116.1,CA EL TORO MCAS,69014
USW00093102,39.4167,-118.7167,1199.1,NV FALLON NAAS,
USW00093103,32.8333,-115.2667,18,CA HOLTVILLE NAAS,
USW00093104,35.6875,-117.6931,679.7,CA CHINA LAKE NAF,74612
USW00093105,33.4333,-112.3667,292,AZ PHOENIX LITCHFIELD NAF,
USW00093106,33.7833,-118.05,11,CA LOS ALAMITOS,
USW00093107,32.8667,-117.1333,145.4,CA SAN DIEGO MIRAMAR NAS,72293
USW00093108,35.1167,-118.15,841.9,CA MOJAVE MCAS,
USW00093110,34.2008,-119.2069,11,CA OXNARD VENTURA CO AP,
USW00093111,34.1167,-119.1167,4,CA POINT MUGU NF,72391
USW00093112,32.7,-117.2,7.9,CA NORTH ISLAND NAS,
USW00093113,33.75,-118.25,13.1,CA SAN PEDRO NAS,
USW00093114,33.7,-117.8333,18,CA TUSTIN MCAF,69016
USW00093115,32.5667,-117.1167,7.3,CA IMPERIAL BEACH REAM FLD NAS,
USW00093116,33.25,-119.45,153,CA SAN NICOLAS ISLAND,72291
USW00093117,33.0233,-118.5881,55.5,CA SAN CLEMENTE IS NAAS,
USW00093118,33.2,-115.8333,-68.9,CA SALTON SEA NAAF,
USW00093120,33.6167,-116.1667,-36,CA THERMAL NAF,
USW00093121,34.3,-116.1667,643.1,CA TWENTYNINE PALMS MC,69015
USW00093123,39.4167,-118.7167,1200,NV FALLON CAA AP,
USW00093124,34.4333,-119.85,4,CA SANTA BARBARA MCAS,
USW00093129,37.7086,-113.0944,1702.6,UT CEDAR CITY MUNI AP,
USW00093134,34.0511,-118.2353,70.1,CA LOS ANGELES DWTN USC CAMPUS,
USW00093138,33.8281,-116.5053,128.3,CA PALM SPRINGS RGNL AP,
USW00093139,34.2325,-111.3447,1478.3,AZ PAYSON,
USW00093140,33.4489,-112.0825,334.7,AZ PHOENIX CITY,
USW00093141,39.6092,-110.7547,1804.7,UT PRICE CARBON CO AP,72470
USW00093145,32.7333,-114.6167,73.2,AZ YUMA WB CITY,
USW00093167,35.2578,-113.9331,1042.4,AZ KINGMAN MOHAVE CO AP,72370
USW00093184,33.68,-117.8664,16.5,CA SANTA ANA JOHN WAYNE AP,
USW00093193,36.78,-119.7194,101.5,CA FRESNO YOSEMITE INTL AP        GSN HCN,72389
USW00093197,34.0158,-118.4514,53,CA SANTA MONICA MUNI AP,
USW00093198,37.05,-113.5167,882.7,UT ST GEORGE CAA AP,
USW00093205,39.1019,-121.5678,18.9,CA MARYSVILLE YUBA CO AP,
USW00093206,35.2372,-120.6414,61,CA SAN LUIS OBISPO AP,
USW00093209,35.6697,-120.6283,246.9,CA PASO ROBLES MUNI AP,
USW00093210,39.49,-121.6183,57.9,CA OROVILLE MUNI AP,
USW00093211,37.7333,-122.2,2.1,CA OAKLAND NAS,
USW00093214,34.7167,-120.5667,116.1,CA VANDENBERG AFB,72393
USW00093215,34.6667,-120.5833,111.9,CA VANDENBERG AFB,
USW00093216,39.1167,-121.4333,38.1,CA BEALE AFB,
USW00093217,36.6833,-121.7667,43,CA FT ORD,
USW00093218,36,-121.2333,317,CA JOLON FT HUNTER LIGGETT,69002
USW00093219,34.55,-120.6167,24.1,CA VANDENBERG AFB BOATHOUSE SITE,
USW00093221,34.5833,-120.6333,100.9,CA VANDENBERG AFB SUDDEN RCH,
USW00093225,38.6956,-121.5897,7,CA SACRAMENTO METRO AP,
USW00093226,35.6656,-121.2847,18,CA SAN SIMEON PT PIEDRAS BLANCAS,72390
USW00093227,38.2103,-122.2847,4.3,CA NAPA CO AP,
USW00093228,37.6542,-122.115,13.1,CA HAYWARD AIR TERMINAL,72585
USW00093230,38.8983,-119.9947,1924.5,CA SOUTH LAKE TAHOE AP,
USW00093241,38.3775,-121.9575,33.2,CA VACAVILLE NUT TREE AP,
USW00093242,36.9878,-120.1106,77.1,CA MADERA MUNI AP,
USW00093243,37.2381,-120.8825,23.8,CA MERCED 23 WSW                      CRN,74507
USW00093245,38.3208,-123.0747,19.2,CA BODEGA 6 WSW                       CRN,74518
USW00093706,39.7078,-77.7297,212.8,MD HAGERSTOWN WASHINGTON CO AP,
USW00093718,33.8117,-78.7239,9.8,SC N MYRTLE BCH AP,
USW00093719,35.0678,-77.0481,5.8,NC NEW BERN CRAVEN CO AP,
USW00093720,38.3406,-75.5103,14.6,MD SALISBURY WICOMICO RGNL AP,72398
USW00093721,39.1667,-76.6833,47.5,MD BALTIMORE WASH INTL AP,72406
USW00093725,38.9053,-77.0525,34.1,DC WASHINGTON,
USW00093726,35.3167,-77.6333,28.7,NC KINSTON STALLINGS FLD,
USW00093727,34.7,-77.3833,7.9,NC NEW RIVER MCAF,
USW00093728,38.7167,-77.1833,27.1,VA DAVISON AAF,
USW00093729,35.2325,-75.6219,3.4,NC CAPE HATTERAS AP               GSN HCN,72304
USW00093730,39.4494,-74.5672,18.3,NJ ATLANTIC CITY INTL AP,72407
USW00093731,36.95,-76.3,10.1,VA NORFOLK FLEET WF NAS,
USW00093732,39.8,-72.6667,25.9,NY NEW YORK SHOALS AFS,
USW00093733,39.0833,-76.7667,46,MD FT MEADE TPTN AAF,
USW00093734,38.9833,-77.4667,85,VA WASHINGTON DULLES WB A,
USW00093735,37.1333,-76.6,7,VA FT EUSTIS FELKER AAF,
USW00093736,38.1386,-78.453,195.4,VA CHARLOTTESVILLE AP,
USW00093737,35.1333,-78.9333,93,NC FT BRAGG SIMMONS AAF,74693
USW00093738,38.9408,-77.4636,88.4,VA WASHINGTON DC DULLES AP,72403
USW00093739,37.9406,-75.4631,11.6,VA WALLOPS ISLAND FLIGHT FAC,72402
USW00093740,34.9914,-78.8803,56.7,NC FAYETTEVILLE RGNL AP,
USW00093741,37.1319,-76.493,12.8,VA NEWPORT NEWS INTL AP,
USW00093743,34.6833,-77.0333,6.4,NC SWANSBORO BOGUE FLD MCAF,
USW00093759,35.855,-77.8931,48.8,NC ROCKY MT WILSON AP,
USW00093762,39.7333,-77.4333,249.3,PA FOUNTAIN DALE SITE R HELIPAD,
USW00093765,34.7336,-76.6606,3.4,NC BEAUFORT MICHAEL J SMITH FLD,
USW00093773,36.9839,-77.0075,34.1,VA NORFOLK RICH,
USW00093775,37.7081,-77.4344,62.5,VA ASHLAND HANOVER CO MUNI AP,
USW00093776,34.8833,-76.8667,9.1,NC CHERRY POINT MCAS ASOS 2,
USW00093778,39.9181,-76.8742,148.1,PA YORK AP,
USW00093780,39.9492,-74.8417,16.2,NJ MT HOLLY S JERSEY AP,
USW00093781,36.4394,-77.7097,78,NC ROANOKE RAPIDS AP,
USW00093782,34.7917,-79.3661,67.1,NC LAURINBURG MAXTON AP,
USW00093783,36.0467,-79.4769,188.1,NC BURLINGTON ALAMANCE AP,
USW00093784,39.2814,-76.6089,6.1,MD MD SCI CTR BALTIMORE               HCN,
USW00093785,35.9333,-79.0642,156.1,NC CHAPEL HILL WILLIAMS AP,
USW00093786,38.3083,-75.1239,3.7,MD OCEAN CITY MUNI AP,
USW00093801,34.3478,-85.1611,194.8,GA ROME R B RUSSELL AP,72320
USW00093803,35.9667,-85.7833,328.9,TN SMITHVILLE CAA AP,
USW00093804,34.9167,-81.95,248.1,SC SPARTANBURG WB AP,
USW00093805,30.3975,-84.3289,19.2,FL TALLAHASSEE                        HCN,72214
USW00093806,33.2119,-87.6161,45.7,AL TUSCALOOSA MUNI AP                 HCN,
USW00093807,36.1336,-80.2222,295.7,NC WINSTON SALEM RYNLDS AP,72319
USW00093808,36.9647,-86.4239,160.9,KY BOWLING GREEN WARREN CO AP         HCN,
USW00093809,37.0422,-89.1856,95.4,IL CAIRO 3N,
USW00093810,37.7797,-89.2497,123.7,IL CARBONDALE SOUTHERN IL AP,
USW00093812,39.1033,-84.4189,149.4,OH CINCINNATI LUNKEN AP,
USW00093814,39.0431,-84.6717,264.9,KY CINCINNATI NORTHERN KY AP,72421
USW00093815,39.9061,-84.2186,304.8,OH DAYTON INTL AP,72429
USW00093817,38.0442,-87.5206,121.9,IN EVANSVILLE REGIONAL AP         GSN,72432
USW00093818,38.4167,-82.5,170.7,OH CHESAPEAKE HUNTINGTON,
USW00093819,39.7075,-86.2803,240.8,IN INDIANAPOLIS,72438
USW00093820,38.0408,-84.6058,298.7,KY LEXINGTON BLUEGRASS AP         GSN,72422
USW00093821,38.1811,-85.7392,148.7,KY LOUISVILLE INTL AP,72423
USW00093822,39.8447,-89.6839,181.1,IL SPRINGFIELD CAPITAL AP,72439
USW00093823,39.45,-87.3,175.3,IN TERRE HAUTE CAA AP,
USW00093824,39.9444,-81.8922,268.2,OH ZANESVILLE MUNI AP,
USW00093825,37.0956,-89.9161,109.7,MO ADVANCE 1 S,
USW00093826,30.4,-87.6,21.9,AL BARIN FLD NAAS,
USW00093827,30.3833,-87.4167,11.9,FL PENSACOLA BRONSON FLD NAAS,
USW00093828,30.4,-87.2833,11,FL PENSACOLA CORRY FLD NAAS,
USW00093830,33.8667,-84.3,302.1,GA ATLANTA NAS,
USW00093831,32.4833,-80.7167,11.3,SC BEAUFORT MCAS,
USW00093832,30.2167,-81.8833,27.1,FL JACKSONVILLE CECIL FLD NAS,
USW00093833,33.9167,-80.8,74.1,SC COLUMBIA CONGAREE MCAF,
USW00093834,39.9833,-82.8833,249,OH COLUMBUS NAS,
USW00093835,34.1833,-83.6833,387.1,GA GAINESVILLE NAF,
USW00093836,31.25,-81.4667,9.1,GA BRUNSWICK GLYNN CO AP,
USW00093837,30.2333,-81.6667,6.1,FL JACKSONVILLE NAS,
USW00093838,30.1833,-82.5667,68,FL LAKE CITY NAS,
USW00093839,35.3447,-89.8733,86,TN MEMPHIS,
USW00093840,31.1667,-81.4,3,GA ST SIMONS ISLAND NAS,
USW00093841,30.7167,-87.0167,60.7,FL WHITING FLD NAS,
USW00093842,32.5161,-84.9422,119.5,GA COLUMBUS METRO AP,
USW00093843,31.2333,-85.4333,97.8,AL DOTHAN FAA AP,
USW00093844,32.3167,-80.6833,10.1,SC PARRIS ISLAND,
USW00093845,30.7825,-83.2767,60.4,GA VALDOSTA RGNL AP,
USW00093846,34.4978,-82.7097,231.6,SC ANDERSON CO AP,72319
USW00093852,30.3333,-81.65,25,FL JACKSONVILLE WB CITY,
USW00093859,30.4167,-87.2167,15.8,FL PENSACOLA WB CITY,
USW00093861,30.8333,-83.9833,86,GA THOMASVILLE WB CITY,
USW00093862,34.2622,-88.7714,110,MS TUPELO RGNL AP,72332
USW00093874,30.4119,-89.0808,12.8,MS GULFPORT - BILOXI AP,74757
USW00093890,39.15,-84.5167,231.6,OH CINCINNATI ABBE WSMO,
USW00093891,39.9667,-83,221,OH COLUMBUS WSO CITY,
USW00093901,32.7333,-96.9667,150,TX DALLAS HENSLEY FLD NAS,
USW00093903,32.9833,-97.4833,232,TX FT WORTH EAGLE MT LK,
USW00093904,32.8167,-97.35,214.9,TX FT WORTH MEACHAM FLD NAAF,74739
USW00093905,37.9167,-97.9,479.1,KS HUTCHINSON NAS,
USW00093906,30.0333,-90.0833,4,LA NEW ORLEANS NAS,
USW00093907,35.6333,-91.1833,74.1,AR NEWPORT MCAF,
USW00093908,35.2333,-97.4167,359.1,OK NORMAN NAS,
USW00093909,38.8317,-94.8897,331.3,KS OLATHE JOHNSON CO AP,72447
USW00093910,38.75,-90.3833,166.1,MO ST LOUIS LAMBERT,
USW00093914,31.7831,-95.6039,141.7,TX PALESTINE 2 NE,
USW00093915,31.3347,-92.5586,25.6,LA ALEXANDRIA INTL AP,74754
USW00093916,35.15,-90.05,117,TN MEMPHIS PO BLDG,
USW00093917,32.35,-90.8833,89.9,MS VICKSBURG,
USW00093919,31.1828,-90.4708,125.9,MS MCCOMB/PIKE CO/JOHN E LEWIS AP,
USW00093928,32.7667,-96.7833,195.1,TX DALLAS WBO,
USW00093950,34.8822,-95.7831,234.7,OK MCALESTER RGNL AP,
USW00093953,35.6567,-95.3614,185.9,OK MUSKOGEE DAVIS FLD,
USW00093958,38.95,-92.3333,231,MO COLUMBIA WB CITY,
USW00093963,38.6289,-90.1797,123.1,MO ST LOUIS EADS BRG,
USW00093967,37.0911,-95.5664,229.2,KS COFFEYVILLE MUNI AP,
USW00093972,39.1,-94.5833,294.1,MO KANSAS CITY,
USW00093981,37.2,-93.3,403.9,MO SPRINGFIELD WBO,
USW00093985,32.7817,-98.0603,283.5,TX MINERAL WELLS AP,
USW00093986,34.9894,-99.0525,474.3,OK HOBART MUNI AP                     HCN,
USW00093987,31.2361,-94.7544,87.8,TX LUFKIN ANGELINA CO AP,
USW00093988,34.175,-91.9347,63.1,AR PINE BLUFF GRIDER FLD,
USW00093989,39.9369,-91.1919,234.4,IL QUINCY RGNL AP,72443
USW00093990,39.3756,-99.8297,666.9,KS HILL CITY MUNI AP,
USW00093991,36.1333,-90.9333,82.9,AR WALNUT RIDGE FAA AP,
USW00093992,33.2208,-92.8142,76.8,AR EL DORADO S AR RGNL AP,
USW00093993,36.0097,-94.1694,381.3,AR FAYETTEVILLE DRAKE FLD,
USW00093994,39.6833,-91.3333,163.1,MO HANNIBAL,
USW00093995,38.3,-94.3333,264.9,MO BUTLER,
USW00093996,37.7667,-90.4,274,MO FARMINGTON FAA AP,
USW00093997,38.8761,-98.8092,568.1,KS RUSSELL MUNI AP,
USW00093999,32.2333,-90.9333,34.1,MS VICKSBURG CAA AP 2,
USW00094008,48.2138,-106.6213,696.5,MT GLASGOW INTL AP                GSN HCN,72768
USW00094010,48.4089,-106.5144,840,MT ST MARIE,
USW00094011,48.4167,-101.35,497.1,ND MINOT AFB,
USW00094012,48.5428,-109.7633,787.9,MT HAVRE CITY CO AP,72777
USW00094014,48.1739,-103.6367,579.7,ND WILLISTON SLOULIN INTL AP,72767
USW00094015,38.6803,-104.7639,1780.6,CO FT CARSON,72468
USW00094017,48.0944,-105.5744,605.3,MT WOLF POINT INTL AP,
USW00094023,44.3394,-105.5419,1327.1,WY GILLETTE CAMPBELL AP,72665
USW00094030,40.4422,-109.5144,1603.2,UT VERNAL MUNICIPAL AP,
USW00094032,43.7331,-103.6114,1690.1,SD CUSTER CO AP,
USW00094037,45.6044,-103.5464,915.6,SD BUFFALO ASOS,
USW00094038,46.0139,-102.6547,824.5,ND HETTINGER MUNI AP,
USW00094039,43.0206,-102.5183,999.1,SD PINE RIDGE AP,
USW00094040,40.2064,-100.5914,771.1,NE MCCOOK MUNI AP,
USW00094041,47.6458,-101.4394,582.2,ND GARRISON,
USW00094050,40.0489,-107.8853,1947.7,CO MEEKER AP,
USW00094051,47.3258,-106.9475,811.4,MT JORDAN AP,
USW00094052,45.5464,-100.4078,522.7,SD MOBRIDGE MUNI AP,
USW00094053,42.0647,-104.1528,1281.7,WY TORRINGTON MUNI AP,
USW00094054,44.3814,-106.7211,1513.9,WY BUFFALO JOHNSON CO AP,
USW00094055,46.3583,-104.25,905.6,MT BAKER MUNI AP,
USW00094056,45.0319,-102.0192,786.4,SD FAITH MUNI AP,
USW00094057,42.7972,-105.3856,1502.4,WY DOUGLAS CONVERSE CO AP,
USW00094059,48.4886,-105.2097,805.6,MT WOLF POINT 34 NE                   CRN,74231
USW00094060,48.3083,-105.1017,635.5,MT WOLF POINT 29 ENE                  CRN,74232
USW00094074,40.8067,-104.7553,1642.9,CO NUNN 7 NNE                         CRN,74534
USW00094075,40.0353,-105.5408,2995.6,CO BOULDER 14 W                       CRN,74520
USW00094077,42.4247,-103.7364,1342.9,NE HARRISON 20 SSE                    CRN,74438
USW00094078,42.6753,-108.6686,1759.6,WY LANDER 11 SSE                      CRN,72573
USW00094079,42.0681,-101.445,1140,NE WHITMAN 5 ENE                      CRN,74436
USW00094080,46.8947,-103.3769,844.6,ND MEDORA 7 E                         CRN,72752
USW00094081,45.5161,-103.3017,878.7,SD BUFFALO 13 ESE                     CRN,72664
USW00094082,40.2447,-108.9678,1847.7,CO DINOSAUR 2 E                       CRN,74519
USW00094084,48.9675,-102.1703,561.4,ND NORTHGATE 5 ESE                    CRN,72754
USW00094085,44.0194,-100.3531,647.4,SD PIERRE 24 S                        CRN,72663
USW00094088,44.5169,-104.4364,1765.4,WY SUNDANCE 8 NNW                     CRN,72575
USW00094092,40.155,-103.1417,1384.4,CO AKRON A 4 E                        CRN,
USW00094094,40.0822,-108.1997,1756,CO MEEKER 15 W                        CRN,
USW00094096,40.1347,-109.6428,1424.6,UT VERNAL 23 SSE                      CRN,
USW00094097,40.6364,-112.6775,1395.4,UT GRANTSVILLE 12 WNW                 CRN,
USW00094098,40.9225,-109.39,1992.2,UT MANILA 18 ESE                      CRN,
USW00094103,46.0333,-118.3333,289.3,WA WALLA WALLA WSO CITY,72788
USW00094104,46.5833,-112.0333,1263.1,MT HELENA WB CITY,
USW00094107,42.5906,-117.8644,1234.4,OR ROME ST AP,
USW00094119,47.9742,-117.4283,667.8,WA DEER PARK AP,72787
USW00094128,41.7872,-111.8533,1357.6,UT LOGAN CACHE AP,
USW00094129,46.7439,-117.1086,777.5,WA PULLMAN MOSCOW RGNL AP,
USW00094138,40.15,-113.0667,1318,UT TOOELE TARGET,
USW00094143,43.5317,-112.9422,1505.1,ID IDAHO FALLS 46 W,
USW00094144,43.8333,-112.6833,1460.9,ID IDAHO FALLS 43 NW WB,
USW00094150,47.4667,-115.7667,1093,ID MULLAN PASS,
USW00094173,44.5444,-110.4211,2388.1,WY YELLOWSTONE LAKE,
USW00094176,47.6831,-117.3214,595.3,WA SPOKANE FELTS FLD,
USW00094178,42.4819,-114.4869,1265.2,ID TWIN FALLS SUN VLY RGNL AP,
USW00094182,44.8889,-116.1017,1528,ID MCCALL AP,
USW00094185,43.595,-118.9564,1261.9,OR BURNS MUNI AP,72683
USW00094194,43.8339,-111.8045,1480.7,ID REXBURG MADISON CO AP,
USW00094197,48.4608,-119.5167,395,WA OMAK AP,72789
USW00094224,46.1569,-123.8825,2.7,OR ASTORIA RGNL AP                    HCN,72791
USW00094225,46.9728,-123.9303,3.7,WA HOQUIAM BOWERMAN AP,
USW00094227,47.2381,-123.1408,82.6,WA SHELTON SANDERSON FLD,
USW00094236,42.1469,-121.7242,1244.8,OR KLAMATH FALLS INTL AP,
USW00094239,47.3978,-120.2014,374.6,WA WENATCHEE PANGBORN AP,
USW00094240,47.9375,-124.555,56.4,WA QUILLAYUTE STATE AP,72797
USW00094248,47.4933,-122.2144,8.8,WA RENTON MUNI AP,
USW00094261,45.5406,-122.9486,62.2,OR PORTLAND-HILLSBORO AP,
USW00094266,48.1203,-123.4983,87.8,WA PORT ANGELES INTL AP,
USW00094273,45.1947,-123.1339,48.5,OR MCMINNVILLE MUNI AP,
USW00094274,47.2675,-122.5761,89,WA TACOMA NARROWS AP,
USW00094276,48.5222,-123.0231,33.2,WA FRIDAY HARBOR AP,
USW00094281,45.2486,-122.7686,59.7,OR AURORA STATE AP,
USW00094290,47.6872,-122.2553,18.3,WA SEATTLE SAND PT WSFO,
USW00094297,48.2167,-122.6333,60.7,WA COUPEVILLE NOLF,
USW00094298,45.6208,-122.6572,9.1,WA VANCOUVER PEARSON AP,
USW00094299,41.4914,-120.5644,1333.5,CA ALTURAS MUNI AP,
USW00094623,43.9636,-69.7117,20.7,ME WISCASSET AP,
USW00094624,41.6875,-69.9933,20.7,MA CHATHAM MUNI AP,
USW00094626,45.4622,-69.5953,316.1,ME GREENVILLE MAINE FORESTRY SVC,72619
USW00094644,44.9281,-68.7006,38.7,ME OLD TOWN 2 W                       CRN,72714
USW00094645,46.96,-67.8833,224.6,ME LIMESTONE 4 NNW                    CRN,72710
USW00094700,44.5761,-71.1786,353,NH BERLIN MUNI AP,72616
USW00094701,42.35,-71.0667,6.1,MA BOSTON CITY WSO,
USW00094702,41.1583,-73.1289,1.5,CT BRIDGEPORT SIKORSKY MEM AP,72504
USW00094704,42.5708,-77.7133,208.8,NY DANSVILLE MUNI AP,72523
USW00094705,44.2033,-72.5794,343.2,VT BARRE MONTPELIER AP,
USW00094720,41.6686,-70.28,16.8,MA HYANNIS BARNSTABLE MUNI AP,
USW00094723,42.7172,-71.1239,45.4,MA LAWRENCE MUNI AP,
USW00094724,41.3931,-70.615,20.7,MA VINEYARD HAVEN AP,
USW00094725,44.9358,-74.8458,65.2,NY MASSENA INTL AP,
USW00094726,41.6764,-70.9583,24.4,MA NEW BEDFORD MUNI AP,
USW00094728,40.7789,-73.9692,39.6,NY NEW YORK CNTRL PK TWR              HCN,72506
USW00094732,40.0819,-75.0111,30.5,PA PHILADELPHIA NE AP,
USW00094733,44.6872,-73.5231,113.4,NY PLATTSBURGH CLINTON AP,
USW00094740,44.3853,-74.2067,506.9,NY SARANAC RGNL AP,
USW00094741,40.85,-74.0614,2.7,NJ TETERBORO AP,
USW00094745,41.0669,-73.7075,115.5,NY WESTCHESTER CO AP,
USW00094746,42.2706,-71.8731,304.8,MA WORCESTER RGNL AP,72510
USW00094765,43.6264,-72.3047,182.3,NH LEBANON MUNI AP,
USW00094789,40.6386,-73.7622,3.4,NY NEW YORK JFK INTL AP,74486
USW00094790,43.9922,-76.0217,96.9,NY WATERTOWN INTL AP,
USW00094793,41.1667,-71.5833,33.5,RI BLOCK ISLAND STATE AP              HCN,
USW00094794,43.145,-75.3839,216.7,NY UTICA ONEIDA CO AP                 HCN,
USW00094811,43.1333,-89.3333,262.1,WI MADISON TRUAX,
USW00094814,44.3592,-84.6739,350.8,MI HOUGHTON LK ROSCOMMON AP,72638
USW00094815,42.2347,-85.5519,264.6,MI KALAMAZOO BATTLE CK INTL AP,
USW00094817,42.665,-83.4181,297.5,MI PONTIAC OAKLAND CO INTL AP,
USW00094818,42.7611,-87.8136,205.4,WI RACINE BATTEN AP,
USW00094822,42.1928,-89.0931,222.5,IL ROCKFORD GTR ROCKFORD AP,72543
USW00094823,40.4847,-80.2144,366.7,PA PITTSBURGH INTL AP             GSN,72520
USW00094824,46.25,-84.4667,262.1,MI KINROSS AFB,
USW00094830,41.5886,-83.8014,203.9,OH TOLEDO EXPRESS AP,72536
USW00094833,40.65,-86.15,250.9,IN PERU GRISSOM AFB,
USW00094836,46.35,-87.4,378,MI GWINN K I SAWYER AFB,
USW00094846,41.995,-87.9336,200.6,IL CHICAGO OHARE INTL AP,72530
USW00094847,42.2314,-83.3308,192.3,MI DETROIT METRO AP,72537
USW00094849,45.0717,-83.5644,208.5,MI ALPENA CO RGNL AP,72639
USW00094850,46.5311,-87.5483,430.1,MI MARQUETTE,72743
USW00094855,43.9844,-88.5569,238.4,WI OSHKOSH WITTMAN AP,
USW00094860,42.8939,-85.5447,237.1,MI GRAND RAPIDS,72635
USW00094870,40.0397,-88.2778,229.8,IL CHAMPAIGN WILLARD AP,
USW00094871,42.1244,-86.4267,196,MI BENTON HARBOR AP,
USW00094889,42.2228,-83.7444,255.7,MI ANN ARBOR MUNI AP,
USW00094892,41.9144,-88.2464,229.8,IL WEST CHICAGO DUPAGE AP,
USW00094893,45.8183,-88.1144,350.2,MI IRON MTN FORD AP,
USW00094895,40.2342,-85.3936,285.6,IN MUNCIE DELAWARE CO AP,
USW00094898,44.0219,-82.7931,179.8,MI PORT HOPE,
USW00094899,47.4667,-87.8833,190.8,MI COPPER HARBOR,72538
USW00094908,42.3978,-90.7036,321.9,IA DUBUQUE RGNL AP,72547
USW00094909,46.8333,-92.1833,428.9,MN DULUTH WILIAMSON JOH,
USW00094910,42.5544,-92.4011,264.6,IA WATERLOO MUNI AP,72548
USW00094911,42.8783,-97.3633,359.7,SD YANKTON 2 E,
USW00094918,41.3536,-96.0233,390.1,NE OMAHA #1,72553
USW00094925,47.9667,-97.4,276.1,ND GRAND FORKS AF,
USW00094929,46.5486,-90.9189,251.8,WI ASHLAND KENNEDY MEM AP,
USW00094930,43.9333,-90.2667,280.1,WI VOLK FLD ANG,
USW00094931,47.3864,-92.8389,412.1,MN HIBBING CHISHOLM HIBBING AP,
USW00094938,46.4047,-94.1308,372.2,MN BRAINERD CROW WING CO AP,
USW00094943,43.7667,-99.3183,519.1,SD CHAMBERLAIN MUNI AP,72653
USW00094946,41.4333,-99.6333,771.1,NE BROKEN BOW MUNI AP,
USW00094949,40.6044,-98.4272,591.3,NE HASTINGS MUNI AP,
USW00094950,43.7667,-98.0333,397.2,SD MITCHELL MUNI AP,
USW00094957,40.0803,-95.5919,298.7,NE FALLS CITY BRENNER FLD,
USW00094958,41.6236,-98.9517,630.6,NE ORD EVELYN SHARP FLD,
USW00094960,45.0619,-93.3508,262.4,MN MPLS CRYSTAL AP,
USW00094961,48.7167,-94.6,329.8,MN BAUDETTE INTL AP,
USW00094963,44.8322,-93.4706,276.5,MN MPLS FLYING CLOUD AP,
USW00094967,46.9006,-95.0678,437.1,MN PARK RAPIDS MUNI AP                HCN,
USW00094971,43.4075,-94.7461,401.4,IA ESTHERVILLE MUNI AP,
USW00094973,46.0261,-91.4442,367,WI HAYWARD MUNI AP,
USW00094978,41.7636,-96.1778,313.3,NE TEKAMAH MUNI AP,
USW00094982,41.6117,-90.5808,229.8,IA DAVENPORT,
USW00094985,44.6381,-90.1875,382.5,WI MARSHFIELD MUNI AP,
USW00094988,42.1128,-92.9175,296.9,IA MARSHALLTOWN MUNI AP,
USW00094989,41.9922,-93.6217,283.5,IA AMES MUNI AP,
USW00094990,43.3906,-99.8422,619.4,SD WINNER WILEY FLD,
USW00094991,40.6331,-93.9019,344.7,IA LAMONI MUNI AP,
USW00094992,47.7472,-90.3444,185.9,MN GRAND MARAIS,
USW00094993,45.6689,-96.9914,353.9,SD SISSETON MUNI AP,
USW00094994,43.1561,-90.6775,204.8,WI BOSCOBEL AP,
USW00094995,40.8483,-96.565,362.4,NE LINCOLN 8 ENE                      CRN,74442
USW00094996,40.6953,-96.8542,418.2,NE LINCOLN 11 SW                      CRN,74441
USW00096404,62.7369,-141.2083,609.6,AK TOK 70 SE                          CRN,70292
USW00096406,64.5014,-154.1297,78.9,AK RUBY 44 ESE                        CRN,70224
USW00096407,66.562,-159.0036,6.7,AK SELAWIK 28 E                       CRN,70170
USW00096408,63.4519,-150.8747,678.2,AK DENALI 27 N                        CRN,70244
WA004131580,-26.63,15.1,940,AUSWEICHE,
